{"type":"FeatureCollection","generator":"overpass-turbo","copyright":"The data included in this document is from www.openstreetmap.org. The data is made available under ODbL.","timestamp":"2026-05-09T09:23:45Z","features":[{"type":"Feature","properties":{"@id":"way/258738707","addr:city":"Kota Bekasi","addr:district":"Pondok Gede","addr:postcode":"17412","addr:province":"Jawa Barat","addr:street":"Jalan Dokter Ratna","addr:subdistrict":"Jatibening","amenity":"fuel","brand":"VIVO","building":"yes","fuel:octane_90":"yes","fuel:octane_92":"yes","fuel:octane_95":"yes","layer":"1","name":"SPBU VIVO Jatibening","opening_hours":"Mo-Su 07:00-22:00","operator":"PT VIVO ENERGI INDONESIA","payment:cash":"yes","payment:credit_cards":"yes","payment:debit_cards":"yes","payment:mastercard":"yes","payment:visa":"yes","self_service":"no","@geometry":"center"},"geometry":{"type":"Point","coordinates":[106.9504496,-6.2652482]},"id":"way/258738707"},{"type":"Feature","properties":{"@id":"way/319318385","amenity":"fuel","brand":"Pertamina","fuel:diesel":"yes","fuel:octane_80":"yes","fuel:octane_91":"yes","fuel:octane_92":"yes","fuel:octane_95":"yes","fuel:octane_98":"yes","name":"Pertamina","opening_hours":"sunrise-sunset","operator":"PT Pertamina","ref":"34-17129","shop":"convenience","@geometry":"center"},"geometry":{"type":"Point","coordinates":[107.0150062,-6.2421125]},"id":"way/319318385"},{"type":"Feature","properties":{"@id":"way/319318386","addr:city":"Kota Bekasi","addr:street":"Jalan KH. Agus Salim","amenity":"fuel","brand":"Pertamina","brand:wikidata":"Q1641044","fuel:biodiesel":"yes","fuel:diesel":"yes","fuel:octane_80":"yes","fuel:octane_91":"yes","fuel:octane_92":"yes","fuel:octane_95":"yes","fuel:octane_98":"yes","name":"Pertamina 34-17135","operator":"PT Pertamina","shop":"no","@geometry":"center"},"geometry":{"type":"Point","coordinates":[107.0073898,-6.2357182]},"id":"way/319318386"},{"type":"Feature","properties":{"@id":"way/319326270","addr:postcode":"17113","addr:street":"Jalan RA Kartini","amenity":"fuel","brand":"Pertamina","brand:wikidata":"Q1641044","brand:wikipedia":"en:Pertamina","building":"yes","fuel:biodiesel":"yes","fuel:diesel":"yes","fuel:octane_80":"yes","fuel:octane_90":"yes","fuel:octane_92":"yes","fuel:octane_98":"yes","name":"Pertamina","operator":"PT Pertamina","phone":"+62 8835 4533","self_service":"no","@geometry":"center"},"geometry":{"type":"Point","coordinates":[107.0000144,-6.2498179]},"id":"way/319326270"},{"type":"Feature","properties":{"@id":"way/339671044","addr:city":"Bekasi","addr:street":"Jalan H. Mulyadi Joyomartono","amenity":"fuel","brand":"Pertamina","fuel:diesel":"yes","fuel:octane_88":"yes","fuel:octane_92":"yes","name":"Pertamina","operator":"Pertamina","phone":"+62 882 3686","ref":"34-17119","toilets":"yes","@geometry":"center"},"geometry":{"type":"Point","coordinates":[107.0232175,-6.253108]},"id":"way/339671044"},{"type":"Feature","properties":{"@id":"way/340168690","addr:city":"Bekasi","addr:street":"Jalan Ahmad Yani","amenity":"fuel","atm":"yes","brand":"Pertamina","fuel:diesel":"yes","fuel:octane_88":"yes","fuel:octane_92":"yes","name":"Pertamina","opening_hours":"24/7","operator":"Pertamina","ref":"34-17141","toilets":"yes","@geometry":"center"},"geometry":{"type":"Point","coordinates":[106.9940432,-6.2581591]},"id":"way/340168690"},{"type":"Feature","properties":{"@id":"way/342033408","addr:city":"Kota Bekasi","addr:district":"Bekasi Selatan","addr:housenumber":"1","addr:postcode":"17141","addr:province":"Jawa Barat","addr:street":"Jalan Ahmad Yani","addr:subdistrict":"Marga Jaya","amenity":"fuel","brand":"Shell","brand:wikidata":"Q110716465","building":"roof","fuel:GTL_diesel":"yes","fuel:octane_92":"yes","fuel:octane_95":"yes","fuel:octane_98":"yes","layer":"1","name":"Shell Ahmad Yani-1 BKS","opening_hours":"Mo-Su 06:00-22:00","operator":"Shell PLC","payment:cash":"yes","payment:credit_cards":"yes","payment:debit_cards":"yes","payment:mastercard":"yes","payment:visa":"yes","phone":"+62218844870","self_service":"no","@geometry":"center"},"geometry":{"type":"Point","coordinates":[106.9927278,-6.2485694]},"id":"way/342033408"},{"type":"Feature","properties":{"@id":"way/356386391","addr:city":"Bekasi","addr:housenumber":"1","addr:street":"Jalan Ahmad Yani","amenity":"fuel","brand":"Pertamina","brand:wikidata":"Q1641044","brand:wikipedia":"en:Pertamina","building":"yes","fuel:diesel":"yes","fuel:diesel_1":"dex","fuel:lpg":"yes","fuel:octane_88":"yes","fuel:octane_92":"yes","fuel:octane_95":"yes","name":"SPBU Pertamina 31.171.01","opening_hours":"24/7","operator":"Pertamina","toilets":"yes","@geometry":"center"},"geometry":{"type":"Point","coordinates":[106.9921626,-6.2509672]},"id":"way/356386391"},{"type":"Feature","properties":{"@id":"way/356696357","addr:city":"Bekasi","addr:postcode":"17530","addr:street":"Jalan Sumatra","amenity":"fuel","brand":"Pertamina","name":"Pertamina","operator":"Pertamina","phone":"+62 21 898 1044","ref":"34-17514","@geometry":"center"},"geometry":{"type":"Point","coordinates":[107.0794058,-6.292511]},"id":"way/356696357"},{"type":"Feature","properties":{"@id":"way/356696358","addr:postcode":"17530","addr:street":"Jalan M.H. Thamrin","amenity":"fuel","brand":"Pertamina","brand:wikidata":"Q1641044","brand:wikipedia":"en:Pertamina","name":"Pertamina","operator":"Pertamina","phone":"+62 21 8990 8037","@geometry":"center"},"geometry":{"type":"Point","coordinates":[107.1297291,-6.3301687]},"id":"way/356696358"},{"type":"Feature","properties":{"@id":"way/357732711","addr:city":"Bekasi","addr:street":"Jalan Inspeksi Kalimalang","amenity":"fuel","atm":"yes","brand":"Pertamina","fuel:diesel":"yes","fuel:diesel_1":"dex","fuel:octane_88":"yes","fuel:octane_92":"yes","name":"Pertamina","opening_hours":"24/7","operator":"Pertamina","ref":"34-17127","shop":"convenience","toilets":"yes","@geometry":"center"},"geometry":{"type":"Point","coordinates":[107.0145247,-6.2591285]},"id":"way/357732711"},{"type":"Feature","properties":{"@id":"way/359275175","addr:city":"Bekasi","addr:street":"Jalan Pekayon Raya","amenity":"fuel","brand":"Pertamina","brand:wikidata":"Q1641044","building":"yes","fuel:diesel":"yes","fuel:octane_90":"yes","fuel:octane_92":"yes","layer":"1","name":"Pertamina","operator":"Pertamina","payment:cash":"yes","ref":"34-17122","self_service":"no","toilets":"yes","@geometry":"center"},"geometry":{"type":"Point","coordinates":[106.9884226,-6.256913]},"id":"way/359275175"},{"type":"Feature","properties":{"@id":"way/361647471","addr:city":"Kota Bekasi","addr:street":"Jalan Pekayon Raya","amenity":"fuel","brand":"Pertamina","brand:wikidata":"Q1641044","compressed_air":"no","fuel:octane_90":"yes","fuel:octane_92":"yes","name":"Pertamina 34-17105","self_service":"no","@geometry":"center"},"geometry":{"type":"Point","coordinates":[106.9728138,-6.2789544]},"id":"way/361647471"},{"type":"Feature","properties":{"@id":"way/361647585","addr:city":"Kota Bekasi","addr:postcode":"17424","addr:street":"Jalan Swatantra-Jatiasih","amenity":"fuel","brand":"Pertamina","brand:wikidata":"Q1641044","building":"yes","compressed_air":"no","fuel:octane_90":"yes","fuel:octane_92":"yes","fuel:octane_98":"yes","name":"Pertamina 34.174.17","self_service":"no","@geometry":"center"},"geometry":{"type":"Point","coordinates":[106.9683299,-6.2874806]},"id":"way/361647585"},{"type":"Feature","properties":{"@id":"way/363096059","addr:street":"Cikunir Raya","amenity":"fuel","brand":"Pertamina","brand:wikidata":"Q1641044","brand:wikipedia":"en:Pertamina","building":"yes","fuel:octane_90":"yes","fuel:octane_92":"yes","fuel:octane_98":"yes","name":"Pertamina 34 171 43","self_service":"no","@geometry":"center"},"geometry":{"type":"Point","coordinates":[106.9592399,-6.2593391]},"id":"way/363096059"},{"type":"Feature","properties":{"@id":"way/363648757","addr:city":"Bekasi","addr:street":"Jalan Siliwangi","amenity":"fuel","atm":"yes","brand":"Pertamina","brand:wikidata":"Q1641044","fuel:diesel":"yes","fuel:diesel_1":"dex","fuel:octane_90":"yes","fuel:octane_92":"yes","name":"Pertamina 34.17145","opening_hours":"24/7","operator":"Pertamina","self_service":"no","toilets":"yes","@geometry":"center"},"geometry":{"type":"Point","coordinates":[106.9936983,-6.2707806]},"id":"way/363648757"},{"type":"Feature","properties":{"@id":"way/400316130","amenity":"fuel","brand":"Pertamina","name":"Pertamina","operator":"Pertamina","@geometry":"center"},"geometry":{"type":"Point","coordinates":[107.2058052,-6.3485189]},"id":"way/400316130"},{"type":"Feature","properties":{"@id":"way/400316132","amenity":"fuel","brand":"Pertamina","name":"Pertamina","operator":"Pertamina","@geometry":"center"},"geometry":{"type":"Point","coordinates":[107.2045382,-6.3474474]},"id":"way/400316132"},{"type":"Feature","properties":{"@id":"way/480994691","amenity":"fuel","brand":"Pertamina","name":"Pertamina","operator":"Pertamina","@geometry":"center"},"geometry":{"type":"Point","coordinates":[107.0559502,-6.1353901]},"id":"way/480994691"},{"type":"Feature","properties":{"@id":"way/499264767","addr:street":"Jalan I Gusti Ngurah Rai","amenity":"fuel","brand":"Pertamina","brand:wikidata":"Q1641044","brand:wikipedia":"en:Pertamina","building":"roof","fuel:diesel":"yes","fuel:octane_90":"yes","fuel:octane_92":"yes","fuel:octane_98":"yes","name":"Pertamina","@geometry":"center"},"geometry":{"type":"Point","coordinates":[106.9646148,-6.2211238]},"id":"way/499264767"},{"type":"Feature","properties":{"@id":"way/500909584","addr:city":"Kota Bekasi","addr:street":"Jalan Perjuangan","amenity":"fuel","brand":"Pertamina","brand:wikidata":"Q1641044","building":"yes","name":"Pertamina 34-17139","@geometry":"center"},"geometry":{"type":"Point","coordinates":[107.0181711,-6.2214344]},"id":"way/500909584"},{"type":"Feature","properties":{"@id":"way/501946101","addr:city":"Kabupaten Bekasi","addr:street":"Jalan Raya Ujung Harapan","amenity":"fuel","brand":"Pertamina","brand:wikidata":"Q1641044","building":"yes","name":"Pertamina 34-17148","@geometry":"center"},"geometry":{"type":"Point","coordinates":[107.0066819,-6.1892753]},"id":"way/501946101"},{"type":"Feature","properties":{"@id":"way/504672784","addr:street":"Jalan Jati Waringin","amenity":"fuel","brand":"Pertamina","brand:wikidata":"Q1641044","building":"roof","name":"Pertamina","@geometry":"center"},"geometry":{"type":"Point","coordinates":[106.912987,-6.2753222]},"id":"way/504672784"},{"type":"Feature","properties":{"@id":"way/506543152","addr:city":"Kab. Bekasi","addr:district":"Karangbahagia","addr:postcode":"17530","addr:province":"Jawa Barat","addr:street":"Jalan Raya Cikarang Sukatani","addr:subdistrict":"Karangsentosa","amenity":"fuel","brand":"Pertamina","brand:wikidata":"Q1641044","building":"yes","name":"Pertamina 34.175.32","self_service":"no","@geometry":"center"},"geometry":{"type":"Point","coordinates":[107.1781579,-6.1760996]},"id":"way/506543152"},{"type":"Feature","properties":{"@id":"way/512827516","addr:street":"Jalan Hankam Raya","amenity":"fuel","brand":"Pertamina","brand:wikidata":"Q1641044","brand:wikipedia":"en:Pertamina","building":"roof","layer":"1","name":"Pertamina","@geometry":"center"},"geometry":{"type":"Point","coordinates":[106.9220711,-6.2974438]},"id":"way/512827516"},{"type":"Feature","properties":{"@id":"way/545217896","amenity":"fuel","brand":"Pertamina","brand:wikidata":"Q1641044","name":"Pertamina","operator":"Pertamina","self_service":"no","@geometry":"center"},"geometry":{"type":"Point","coordinates":[107.0014355,-6.2689165]},"id":"way/545217896"},{"type":"Feature","properties":{"@id":"way/558715851","amenity":"fuel","brand":"Pertamina","brand:wikidata":"Q1641044","brand:wikipedia":"en:Pertamina","name":"Pertamina","@geometry":"center"},"geometry":{"type":"Point","coordinates":[107.0167581,-6.2679767]},"id":"way/558715851"},{"type":"Feature","properties":{"@id":"way/720893941","addr:city":"Bekasi","addr:street":"Jalan Jati Makmur","amenity":"fuel","brand":"Pertamina","brand:wikidata":"Q1641044","brand:wikipedia":"en:Pertamina","building":"roof","fuel:octane_90":"yes","fuel:octane_92":"yes","layer":"1","name":"Pertamina","self_service":"no","@geometry":"center"},"geometry":{"type":"Point","coordinates":[106.9228032,-6.2860245]},"id":"way/720893941"},{"type":"Feature","properties":{"@id":"way/720893950","amenity":"fuel","brand":"Pertamina","brand:wikidata":"Q1641044","brand:wikipedia":"en:Pertamina","fuel:octane_90":"yes","fuel:octane_92":"yes","fuel:octane_98":"yes","name":"Pertamina 34-17413","opening_hours":"24/7","self_service":"no","@geometry":"center"},"geometry":{"type":"Point","coordinates":[106.9611656,-6.2931113]},"id":"way/720893950"},{"type":"Feature","properties":{"@id":"way/720898009","amenity":"fuel","brand":"Pertamina","brand:wikidata":"Q1641044","brand:wikipedia":"en:Pertamina","name":"Pertamina","@geometry":"center"},"geometry":{"type":"Point","coordinates":[106.9392584,-6.288445]},"id":"way/720898009"},{"type":"Feature","properties":{"@id":"way/720898011","addr:street":"Kodau","amenity":"fuel","brand":"Pertamina","brand:wikidata":"Q1641044","brand:wikipedia":"en:Pertamina","building":"roof","name":"Pertamina","self_service":"no","@geometry":"center"},"geometry":{"type":"Point","coordinates":[106.9368699,-6.3052006]},"id":"way/720898011"},{"type":"Feature","properties":{"@id":"way/721054979","addr:city":"Kota Bekasi","addr:postcode":"17422","addr:street":"Jalan Raya Jatimekar","amenity":"fuel","brand":"Pertamina","brand:wikidata":"Q1641044","brand:wikipedia":"en:Pertamina","building":"roof","layer":"1","name":"Pertamina","@geometry":"center"},"geometry":{"type":"Point","coordinates":[106.9513746,-6.2865746]},"id":"way/721054979"},{"type":"Feature","properties":{"@id":"way/721087263","amenity":"fuel","brand":"Pertamina","brand:wikidata":"Q1641044","brand:wikipedia":"en:Pertamina","name":"Pertamina","@geometry":"center"},"geometry":{"type":"Point","coordinates":[107.1393456,-6.3160715]},"id":"way/721087263"},{"type":"Feature","properties":{"@id":"way/721087265","addr:street":"Jalan Dokter Ratna","amenity":"fuel","brand":"Pertamina","brand:wikidata":"Q1641044","brand:wikipedia":"en:Pertamina","building":"roof","layer":"1","name":"Pertamina","@geometry":"center"},"geometry":{"type":"Point","coordinates":[106.9505951,-6.2702546]},"id":"way/721087265"},{"type":"Feature","properties":{"@id":"way/721087266","addr:city":"Kota Bekasi","addr:district":"Pondok Gede","addr:postcode":"17412","addr:province":"Jawa Barat","addr:street":"Jalan Caman Raya","addr:subdistrict":"Jatibening","amenity":"fuel","brand":"Shell","brand:wikidata":"Q110716465","building":"roof","fuel:GTL_diesel":"yes","fuel:octane_92":"yes","fuel:octane_95":"yes","fuel:octane_98":"yes","layer":"1","name":"Shell Jatibening-1 Bekasi","opening_hours":"Mo-Su 06:00-22:00","operator":"Shell PLC","payment:cash":"yes","payment:credit_cards":"yes","payment:debit_cards":"yes","payment:mastercard":"yes","payment:visa":"yes","phone":"+622184975345","self_service":"no","@geometry":"center"},"geometry":{"type":"Point","coordinates":[106.949481,-6.2584509]},"id":"way/721087266"},{"type":"Feature","properties":{"@id":"way/721087293","amenity":"fuel","brand":"Pertamina","brand:wikidata":"Q1641044","brand:wikipedia":"en:Pertamina","building":"roof","compressed_air":"yes","name":"Pertamina","@geometry":"center"},"geometry":{"type":"Point","coordinates":[106.9596128,-6.249011]},"id":"way/721087293"},{"type":"Feature","properties":{"@id":"way/721506627","amenity":"fuel","brand":"Pertamina","brand:wikidata":"Q1641044","brand:wikipedia":"en:Pertamina","name":"Pertamina","@geometry":"center"},"geometry":{"type":"Point","coordinates":[106.9460029,-6.3297398]},"id":"way/721506627"},{"type":"Feature","properties":{"@id":"way/749894930","addr:city":"Kota Bekasi","addr:district":"Bekasi Barat","addr:housenumber":"109","addr:postcode":"17145","addr:province":"Jawa Barat","addr:street":"Jalan Raya Kalimalang","addr:subdistrict":"Jakasampurna","amenity":"fuel","brand":"Shell","brand:wikidata":"Q110716465","building":"roof","fuel:GTL_diesel":"yes","fuel:octane_92":"yes","fuel:octane_95":"yes","layer":"1","name":"Shell Noer Ali-1 Bekasi","opening_hours":"Mo-Su 06:00-22:00","operator":"Shell PLC","payment:cash":"yes","payment:credit_cards":"yes","payment:debit_cards":"yes","payment:mastercard":"yes","payment:visa":"yes","phone":"+622186907716","self_service":"no","@geometry":"center"},"geometry":{"type":"Point","coordinates":[106.9490449,-6.2493887]},"id":"way/749894930"},{"type":"Feature","properties":{"@id":"way/753133273","addr:street":"Jalan Kemang Sari Raya","amenity":"fuel","brand":"Pertamina","brand:wikidata":"Q1641044","brand:wikipedia":"en:Pertamina","building":"roof","fuel:octane_90":"yes","fuel:octane_92":"yes","layer":"1","name":"Pertamina 34-17115","self_service":"no","@geometry":"center"},"geometry":{"type":"Point","coordinates":[106.9352392,-6.2744279]},"id":"way/753133273"},{"type":"Feature","properties":{"@id":"way/753358863","addr:street":"Jalan Jati Waringin","amenity":"fuel","brand":"Pertamina","brand:wikidata":"Q1641044","building":"roof","name":"Pertamina","@geometry":"center"},"geometry":{"type":"Point","coordinates":[106.911666,-6.2704225]},"id":"way/753358863"},{"type":"Feature","properties":{"@id":"way/762984285","addr:city":"Bekasi","addr:postcode":"17132","addr:street":"Jalan Sultan Agung","amenity":"fuel","brand":"Pertamina","brand:wikidata":"Q1641044","building":"yes","fuel:octane_90":"yes","fuel:octane_92":"yes","name":"Pertamina 34-17117","roof":"y","@geometry":"center"},"geometry":{"type":"Point","coordinates":[106.9774361,-6.2089562]},"id":"way/762984285"},{"type":"Feature","properties":{"@id":"way/762988167","addr:city":"Kota Bekasi","addr:street":"Jalan Sultan Agung","amenity":"fuel","brand":"Pertamina","brand:wikidata":"Q1641044","brand:wikipedia":"en:Pertamina","building":"yes","fuel:octane_90":"yes","fuel:octane_92":"yes","fuel:octane_98":"yes","name":"Pertamina 31.171.05","self_service":"no","@geometry":"center"},"geometry":{"type":"Point","coordinates":[106.9764999,-6.2016857]},"id":"way/762988167"},{"type":"Feature","properties":{"@id":"way/763451717","addr:city":"Kota Bekasi","addr:district":"Bekasi Selatan","addr:postcode":"17143","addr:province":"Jawa Barat","addr:street":"Jalan Jenderal Sudirman","addr:subdistrict":"Kayuringin Jaya","amenity":"fuel","brand":"VIVO","building":"yes","fuel:octane_90":"yes","fuel:octane_92":"yes","fuel:octane_95":"yes","layer":"1","name":"SPBU VIVO Bekasi","opening_hours":"Mo-Su 07:00-22:00","operator":"PT VIVO ENERGI INDONESIA","payment:cash":"yes","payment:credit_cards":"yes","payment:debit_cards":"yes","payment:mastercard":"yes","payment:visa":"yes","self_service":"no","wikidata":"Q114877518","@geometry":"center"},"geometry":{"type":"Point","coordinates":[106.9872385,-6.2313366]},"id":"way/763451717"},{"type":"Feature","properties":{"@id":"way/764282277","addr:city":"Bekasi","addr:street":"Jalan Ir. Haji Juanda","amenity":"fuel","atm":"yes","brand":"Pertamina","brand:wikidata":"Q1641044","brand:wikipedia":"en:Pertamina","building":"roof","fuel:diesel":"dex","fuel:octane_88":"yes","fuel:octane_92":"yes","fuel:octane_95":"yes","name":"Pertamina","operator":"PT Pertamina","toilets":"yes","@geometry":"center"},"geometry":{"type":"Point","coordinates":[106.9943725,-6.233756]},"id":"way/764282277"},{"type":"Feature","properties":{"@id":"way/906960710","amenity":"fuel","brand":"Pertamina","brand:wikidata":"Q1641044","brand:wikipedia":"en:Pertamina","name":"Pertamina","operator":"34.175.45","@geometry":"center"},"geometry":{"type":"Point","coordinates":[107.0196271,-6.2772364]},"id":"way/906960710"},{"type":"Feature","properties":{"@id":"way/1071789922","amenity":"fuel","brand":"Pertamina","brand:wikidata":"Q1641044","building":"yes","name":"Pertamina 34.17518","@geometry":"center"},"geometry":{"type":"Point","coordinates":[107.0312063,-6.2917771]},"id":"way/1071789922"},{"type":"Feature","properties":{"@id":"way/1072138407","amenity":"fuel","brand":"Pertamina","brand:wikidata":"Q1641044","name":"Pertamina SPBU 34-17538","phone":"+62 8265 1324","@geometry":"center"},"geometry":{"type":"Point","coordinates":[107.0402724,-6.2794459]},"id":"way/1072138407"},{"type":"Feature","properties":{"@id":"way/1072138409","addr:postcode":"17510","addr:street":"Jalan Boulevard Grand Wisata","amenity":"fuel","brand":"Shell","brand:wikidata":"Q110716465","building":"roof","fuel:diesel":"yes","fuel:octane_92":"yes","fuel:octane_95":"yes","name":"Shell","operator":"Shell","phone":"+62 21 2908 8012","ref":"11945276","tenant":"Christian Tirtakusuma","toilets":"yes","@geometry":"center"},"geometry":{"type":"Point","coordinates":[107.0451247,-6.2767703]},"id":"way/1072138409"},{"type":"Feature","properties":{"@id":"way/1077368582","amenity":"fuel","brand":"Pertamina","brand:wikidata":"Q1641044","building":"roof","name":"Pertamina","@geometry":"center"},"geometry":{"type":"Point","coordinates":[106.926679,-6.2584714]},"id":"way/1077368582"},{"type":"Feature","properties":{"@id":"way/1077368583","amenity":"fuel","brand":"Pertamina","brand:wikidata":"Q1641044","building":"roof","name":"Pertamina","@geometry":"center"},"geometry":{"type":"Point","coordinates":[106.9283869,-6.2584418]},"id":"way/1077368583"},{"type":"Feature","properties":{"@id":"way/1133030695","addr:city":"Bekasi","addr:street":"Jalan Kaliabang","amenity":"fuel","brand":"Pertamina","brand:wikidata":"Q1641044","fuel:octane_90":"yes","name":"Pertamina 34-1714000","@geometry":"center"},"geometry":{"type":"Point","coordinates":[107.0031648,-6.203581]},"id":"way/1133030695"},{"type":"Feature","properties":{"@id":"way/1133030696","addr:city":"Kota Bekasi","addr:street":"Jalan Prima Harapan Regensi","amenity":"fuel","brand":"Pertamina","brand:wikidata":"Q1641044","name":"Pertamina 34-17136","@geometry":"center"},"geometry":{"type":"Point","coordinates":[107.0174771,-6.2068609]},"id":"way/1133030696"},{"type":"Feature","properties":{"@id":"way/1133030697","addr:city":"Kota Bekasi","addr:street":"Jalan Pangeran Jayakarta","amenity":"fuel","brand":"Pertamina","brand:wikidata":"Q1641044","name":"Pertamina 34-17137","@geometry":"center"},"geometry":{"type":"Point","coordinates":[106.98681,-6.2269268]},"id":"way/1133030697"},{"type":"Feature","properties":{"@id":"way/1133030698","addr:city":"Kota Bekasi","addr:street":"Jalan Perjuangan","amenity":"fuel","brand":"Pertamina","brand:wikidata":"Q1641044","name":"Pertamina 34-17107","@geometry":"center"},"geometry":{"type":"Point","coordinates":[107.0155057,-6.2219183]},"id":"way/1133030698"},{"type":"Feature","properties":{"@id":"way/1164032128","addr:city":"Kota Bekasi","addr:postcode":"17147","addr:street":"Jalan Pulau Ribung","amenity":"fuel","brand":"BP","brand:wikidata":"Q152057","building":"yes","fuel:diesel":"yes","fuel:octane_90":"yes","fuel:octane_92":"yes","fuel:octane_95":"yes","name":"BP Grand Galaxy","opening_hours":"Mo-Su 06:00-22:00","payment:cash":"yes","payment:credit_cards":"yes","payment:debit_cards":"yes","payment:qris":"yes","phone":"+628559990060","self_service":"no","toilets":"customers","@geometry":"center"},"geometry":{"type":"Point","coordinates":[106.9745174,-6.2673701]},"id":"way/1164032128"},{"type":"Feature","properties":{"@id":"way/1182492260","addr:city":"Kota Bekasi","addr:district":"Bekasi Selatan","addr:postcode":"17147","addr:province":"Jawa Barat","addr:street":"Jalan Pekayon Raya","addr:subdistrict":"Jaka Setia","amenity":"fuel","brand":"VIVO","building":"yes","fuel:octane_90":"yes","fuel:octane_92":"yes","fuel:octane_95":"yes","layer":"1","name":"SPBU VIVO Pekayon","opening_hours":"Mo-Su 07:00-22:00","operator":"PT VIVO ENERGI INDONESIA","payment:cash":"yes","payment:credit_cards":"yes","payment:debit_cards":"yes","payment:mastercard":"yes","payment:visa":"yes","self_service":"no","wikidata":"Q114877518","@geometry":"center"},"geometry":{"type":"Point","coordinates":[106.9755208,-6.2764232]},"id":"way/1182492260"},{"type":"Feature","properties":{"@id":"way/1186775237","addr:city":"Kota Bekasi","addr:district":"Jatiasih","addr:postcode":"17423","addr:province":"Jawa Barat","addr:street":"Jalan Swatantra V","amenity":"fuel","brand":"Pertamina","brand:wikidata":"Q1641044","brand:wikipedia":"en:Pertamina","building":"yes","layer":"-1","name":"SPBU 34.174.14","operator":"Pertamina","@geometry":"center"},"geometry":{"type":"Point","coordinates":[106.9685657,-6.2963801]},"id":"way/1186775237"},{"type":"Feature","properties":{"@id":"way/1189529827","addr:city":"Kota Bekasi","addr:district":"Jatiasih","addr:housenumber":"2A","addr:postcode":"17421","addr:province":"Jawa Barat","addr:street":"Jalan Raya Jatikramat","addr:subdistrict":"Jatikramat","amenity":"fuel","brand":"VIVO","building":"yes","fuel:octane_90":"yes","fuel:octane_92":"yes","fuel:octane_95":"yes","layer":"1","name":"SPBU VIVO Jatikramat","opening_hours":"Mo-Su 07:00-22:00","operator":"PT VIVO ENERGI INDONESIA","payment:cash":"yes","payment:credit_cards":"yes","payment:debit_cards":"yes","payment:mastercard":"yes","payment:visa":"yes","self_service":"no","wikidata":"Q114877518","@geometry":"center"},"geometry":{"type":"Point","coordinates":[106.9444374,-6.286979]},"id":"way/1189529827"},{"type":"Feature","properties":{"@id":"way/1194279853","addr:city":"Kota Bekasi","addr:district":"Jatiasih","addr:housenumber":"2","addr:postcode":"17424","addr:province":"Jawa Barat","addr:street":"Jalan Swatantra-Jatiasih","addr:subdistrict":"Jatirasa","amenity":"fuel","brand":"Shell","brand:wikidata":"Q110716465","building":"roof","fuel:GTL_diesel":"yes","fuel:octane_92":"yes","fuel:octane_95":"yes","fuel:octane_98":"yes","layer":"1","name":"Shell Raya Pekayon-1 Bekasi","opening_hours":"Mo-Su 00:00-23:59","operator":"Shell PLC","payment:cash":"yes","payment:credit_cards":"yes","payment:debit_cards":"yes","payment:mastercard":"yes","payment:visa":"yes","phone":"+622182755343","self_service":"no","@geometry":"center"},"geometry":{"type":"Point","coordinates":[106.9674629,-6.2867674]},"id":"way/1194279853"},{"type":"Feature","properties":{"@id":"way/1197333409","amenity":"fuel","brand":"Pertamina","brand:wikidata":"Q1641044","fuel:octane_90":"yes","fuel:octane_92":"yes","name":"Pertamina 34-17130","self_service":"no","@geometry":"center"},"geometry":{"type":"Point","coordinates":[106.9993633,-6.1765627]},"id":"way/1197333409"},{"type":"Feature","properties":{"@id":"way/1198258366","addr:city":"Bekasi","addr:street":"Jalan Harapan Indah Raya","amenity":"fuel","brand":"Pertamina","brand:wikidata":"Q1641044","compressed_air":"no","fuel:octane_90":"yes","fuel:octane_92":"yes","name":"Pertamina 34-17123","self_service":"no","@geometry":"center"},"geometry":{"type":"Point","coordinates":[106.9775168,-6.1854974]},"id":"way/1198258366"},{"type":"Feature","properties":{"@id":"way/1207349667","addr:city":"Bekasi","addr:postcode":"17214","addr:street":"Jalan Harapan Indah Bulevar","amenity":"fuel","brand":"BP","brand:wikidata":"Q152057","fuel:diesel":"yes","fuel:octane_90":"yes","fuel:octane_92":"yes","fuel:octane_95":"yes","name":"BP AKR Kota Harapan Indah","opening_hours":"Mo-Su 06:00-22:00","self_service":"no","@geometry":"center"},"geometry":{"type":"Point","coordinates":[106.9742197,-6.1696213]},"id":"way/1207349667"},{"type":"Feature","properties":{"@id":"way/1207433117","addr:city":"Kota Bekasi","addr:district":"Bekasi Selatan","addr:postcode":"17141","addr:province":"Jawa Barat","addr:street":"Jalan Ahmad Yani","addr:subdistrict":"Marga Jaya","amenity":"fuel","brand":"VIVO","building":"yes","covered":"yes","fuel:octane_90":"yes","fuel:octane_92":"yes","fuel:octane_95":"yes","layer":"1","name":"SPBU VIVO Margajaya","opening_hours":"Mo-Su 07:00-22:00","operator":"PT VIVO ENERGI INDONESIA","payment:cash":"yes","payment:credit_cards":"yes","payment:debit_cards":"yes","payment:mastercard":"yes","payment:visa":"yes","self_service":"no","wikidata":"Q114877518","@geometry":"center"},"geometry":{"type":"Point","coordinates":[106.9923156,-6.2501479]},"id":"way/1207433117"},{"type":"Feature","properties":{"@id":"way/1255477481","addr:city":"Kota Bekasi","addr:district":"Jatiasih","addr:housenumber":"66","addr:postcode":"17422","addr:province":"Jawa Barat","addr:street":"Jalan Raya Jatikramat","addr:subdistrict":"Jatimekar","amenity":"fuel","brand":"Shell","brand:wikidata":"Q110716465","building":"roof","fuel:GTL_diesel":"yes","fuel:octane_92":"yes","fuel:octane_95":"yes","layer":"1","name":"Shell Jatimekar-1","opening_hours":"Mo-Su 00:00-23:59","operator":"Shell PLC","payment:cash":"yes","payment:credit_cards":"yes","payment:debit_cards":"yes","payment:mastercard":"yes","payment:visa":"yes","phone":"+622185522968","self_service":"no","@geometry":"center"},"geometry":{"type":"Point","coordinates":[106.9460942,-6.28634]},"id":"way/1255477481"},{"type":"Feature","properties":{"@id":"way/1255482556","addr:city":"Kota Bekasi","addr:district":"Jatiasih","addr:housenumber":"22","addr:postcode":"17423","addr:province":"Jawa Barat","addr:street":"Jalan Wibawa Mukti II","addr:subdistrict":"Jatiasih","amenity":"fuel","brand":"Shell","brand:wikidata":"Q110716465","building":"roof","fuel:GTL_diesel":"yes","fuel:octane_92":"yes","fuel:octane_95":"yes","layer":"1","name":"Shell Wibawa Mukti-1 BKS","opening_hours":"Mo-Su 00:00-23:59","operator":"Shell PLC","payment:cash":"yes","payment:credit_cards":"yes","payment:debit_cards":"yes","payment:mastercard":"yes","payment:visa":"yes","phone":"+622182784144","self_service":"no","@geometry":"center"},"geometry":{"type":"Point","coordinates":[106.9537876,-6.3086122]},"id":"way/1255482556"},{"type":"Feature","properties":{"@id":"way/1255482560","addr:city":"Kota Bekasi","addr:district":"Rawalumbu","addr:postcode":"17117","addr:province":"Jawa Barat","addr:street":"Jalan Baru Cipendawa","addr:subdistrict":"Bojong Menteng","amenity":"fuel","brand":"Shell","brand:wikidata":"Q110716465","building":"roof","fuel:GTL_diesel":"yes","fuel:octane_92":"yes","fuel:octane_95":"yes","layer":"1","name":"Shell Cipendawa-1 BKS","opening_hours":"Mo-Su 06:00-22:00","operator":"Shell PLC","payment:cash":"yes","payment:credit_cards":"yes","payment:debit_cards":"yes","payment:mastercard":"yes","payment:visa":"yes","phone":"+622182766066","self_service":"no","@geometry":"center"},"geometry":{"type":"Point","coordinates":[106.9761127,-6.2999915]},"id":"way/1255482560"},{"type":"Feature","properties":{"@id":"way/1255482569","addr:city":"Kota Bekasi","addr:district":"Rawalumbu","addr:housenumber":"139B","addr:postcode":"17114","addr:province":"Jawa Barat","addr:street":"Jalan Cut Mutia","addr:subdistrict":"Sepanjang Jaya","amenity":"fuel","brand":"Shell","brand:wikidata":"Q110716465","building":"roof","fuel:GTL_diesel":"yes","fuel:octane_92":"yes","fuel:octane_95":"yes","fuel:octane_98":"yes","layer":"1","name":"Shell Cut Mutia-2 BEKASI","opening_hours":"Mo-Su 06:00-22:00","operator":"Shell PLC","payment:cash":"yes","payment:credit_cards":"yes","payment:debit_cards":"yes","payment:mastercard":"yes","payment:visa":"yes","phone":"+622182765404","self_service":"no","@geometry":"center"},"geometry":{"type":"Point","coordinates":[107.0025478,-6.2605758]},"id":"way/1255482569"},{"type":"Feature","properties":{"@id":"way/1255482573","addr:city":"Kota Bekasi","addr:district":"Bekasi Barat","addr:postcode":"17145","addr:province":"Jawa Barat","addr:street":"Jalan K. H. Noer Ali","addr:subdistrict":"Jakasampurna","amenity":"fuel","brand":"Shell","brand:wikidata":"Q110716465","building":"roof","fuel:GTL_diesel":"yes","fuel:octane_92":"yes","fuel:octane_95":"yes","layer":"1","name":"Shell Noer Ali-2","opening_hours":"Mo-Su 05:00-22:00","operator":"Shell PLC","payment:cash":"yes","payment:credit_cards":"yes","payment:debit_cards":"yes","payment:mastercard":"yes","payment:visa":"yes","phone":"+62 21 8946812","self_service":"no","@geometry":"center"},"geometry":{"type":"Point","coordinates":[106.9713286,-6.2499043]},"id":"way/1255482573"},{"type":"Feature","properties":{"@id":"way/1255482580","addr:city":"Kota Bekasi","addr:district":"Pondok Gede","addr:housenumber":"41-4","addr:postcode":"17411","addr:province":"Jawa Barat","addr:street":"Jalan Jati Waringin","addr:subdistrict":"Jatiwaringin","amenity":"fuel","brand":"Shell","brand:wikidata":"Q110716465","building":"roof","fuel:GTL_diesel":"yes","fuel:octane_92":"yes","fuel:octane_95":"yes","layer":"1","name":"Shell Pondok Gede-1 BKS","opening_hours":"Mo-Su 06:00-22:00","operator":"Shell PLC","payment:cash":"yes","payment:credit_cards":"yes","payment:debit_cards":"yes","payment:mastercard":"yes","payment:visa":"yes","phone":"+622185211909","self_service":"no","@geometry":"center"},"geometry":{"type":"Point","coordinates":[106.911986,-6.2694746]},"id":"way/1255482580"},{"type":"Feature","properties":{"@id":"way/1302200264","addr:city":"Kota Bekasi","addr:street":"Jalan Raya Narogong","amenity":"fuel","brand":"Pertamina","brand:wikidata":"Q1641044","fuel:octane_90":"yes","fuel:octane_92":"yes","name":"Pertamina 34.17101","self_service":"no","@geometry":"center"},"geometry":{"type":"Point","coordinates":[106.9865597,-6.2863706]},"id":"way/1302200264"},{"type":"Feature","properties":{"@id":"way/1308464344","amenity":"fuel","brand":"Shell","building":"roof","layer":"1","name":"Shell","operator":"Shell","@geometry":"center"},"geometry":{"type":"Point","coordinates":[107.1817223,-6.3586436]},"id":"way/1308464344"},{"type":"Feature","properties":{"@id":"way/1308464349","amenity":"fuel","brand":"Pertamina","brand:wikidata":"Q1641044","building":"roof","layer":"1","name":"Pertamina 34-17535","operator":"Pertamina","@geometry":"center"},"geometry":{"type":"Point","coordinates":[107.1823237,-6.3537776]},"id":"way/1308464349"},{"type":"Feature","properties":{"@id":"way/1317971434","addr:city":"Kota Bekasi","addr:district":"Bekasi Barat","addr:postcode":"17145","addr:province":"Jawa Barat","addr:street":"Jalan Raya Kalimalang","addr:subdistrict":"Jakasampurna","amenity":"fuel","brand":"VIVO","building":"yes","fuel:octane_90":"yes","fuel:octane_92":"yes","fuel:octane_95":"yes","layer":"1","name":"SPBU VIVO Kalimalang","opening_hours":"Mo-Su 07:00-22:00","operator":"PT VIVO ENERGI INDONESIA","payment:cash":"yes","payment:credit_cards":"yes","payment:debit_cards":"yes","payment:mastercard":"yes","payment:visa":"yes","self_service":"no","wikidata":"Q114877518","@geometry":"center"},"geometry":{"type":"Point","coordinates":[106.9522082,-6.2492787]},"id":"way/1317971434"},{"type":"Feature","properties":{"@id":"way/1317971454","addr:city":"Kabupaten Bekasi","addr:district":"Setu","addr:housenumber":"29","addr:postcode":"17320","addr:province":"Jawa Barat","addr:street":"Jalan Setu - Bantar Gebang","addr:subdistrict":"Cijengkol","amenity":"fuel","brand":"VIVO","building":"yes","fuel:octane_90":"yes","fuel:octane_92":"yes","fuel:octane_95":"yes","layer":"1","name":"SPBU VIVO Cimuning","opening_hours":"Mo-Su 07:00-22:00","operator":"PT VIVO ENERGI INDONESIA","payment:cash":"yes","payment:credit_cards":"yes","payment:debit_cards":"yes","payment:mastercard":"yes","payment:visa":"yes","self_service":"no","wikidata":"Q114877518","@geometry":"center"},"geometry":{"type":"Point","coordinates":[107.0193292,-6.3210977]},"id":"way/1317971454"},{"type":"Feature","properties":{"@id":"way/1317971460","addr:city":"Kabupaten Bekasi","addr:district":"Tambun Selatan","addr:housenumber":"57","addr:postcode":"17510","addr:province":"Jawa Barat","addr:street":"Jalan Hasanuddin","addr:subdistrict":"Tambun","amenity":"fuel","brand":"VIVO","building":"yes","fuel:octane_90":"yes","fuel:octane_92":"yes","fuel:octane_95":"yes","layer":"1","name":"SPBU VIVO Tambun","opening_hours":"Mo-Su 07:00-22:00","operator":"PT VIVO ENERGI INDONESIA","payment:cash":"yes","payment:credit_cards":"yes","payment:debit_cards":"yes","payment:mastercard":"yes","payment:visa":"yes","self_service":"no","wikidata":"Q114877518","@geometry":"center"},"geometry":{"type":"Point","coordinates":[107.0744951,-6.2655283]},"id":"way/1317971460"},{"type":"Feature","properties":{"@id":"way/1318751386","addr:city":"Kota Bekasi","addr:district":"Rawalumbu","addr:housenumber":"174","addr:postcode":"17114","addr:province":"Jawa Barat","addr:street":"Jalan Siliwangi","addr:subdistrict":"Sepanjang Jaya","amenity":"fuel","brand":"Shell","brand:wikidata":"Q110716465","building":"roof","fuel:GTL_diesel":"yes","fuel:octane_92":"yes","fuel:octane_95":"yes","layer":"1","name":"Shell Cut Meutia-1 BKS","opening_hours":"Mo-Su 06:00-22:00","operator":"Shell PLC","payment:cash":"yes","payment:credit_cards":"yes","payment:debit_cards":"yes","payment:mastercard":"yes","payment:visa":"yes","phone":"+622182738693","self_service":"no","@geometry":"center"},"geometry":{"type":"Point","coordinates":[106.992965,-6.2722629]},"id":"way/1318751386"},{"type":"Feature","properties":{"@id":"way/1342127250","addr:city":"Kabupaten Bekasi","addr:district":"Karangbahagia","addr:postcode":"17530","addr:province":"Jawa Barat","addr:street":"Jalan Raya Kp Pule","addr:subdistrict":"Karangsetia","amenity":"fuel","brand":"Pertamina","brand:wikidata":"Q1641044","name":"Pertamina 34-17553","@geometry":"center"},"geometry":{"type":"Point","coordinates":[107.1815179,-6.2215581]},"id":"way/1342127250"},{"type":"Feature","properties":{"@id":"way/1342127252","addr:city":"Kabupaten Bekasi","addr:district":"Karangbahagia","addr:postcode":"17530","addr:province":"Jawa Barat","addr:subdistrict":"Sukaraya","amenity":"fuel","brand":"Pertamina","brand:wikidata":"Q1641044","name":"Pertamina 34-17601","@geometry":"center"},"geometry":{"type":"Point","coordinates":[107.1599323,-6.2319662]},"id":"way/1342127252"},{"type":"Feature","properties":{"@id":"way/1360213674","amenity":"fuel","brand":"Pertamina","brand:wikidata":"Q1641044","fuel:diesel":"yes","fuel:octane_90":"yes","fuel:octane_92":"yes","name":"Pertamina 34.176.06","@geometry":"center"},"geometry":{"type":"Point","coordinates":[107.1301379,-6.2007965]},"id":"way/1360213674"},{"type":"Feature","properties":{"@id":"way/1366103845","amenity":"fuel","brand":"Pertamina","brand:wikidata":"Q1641044","fuel:octane_90":"yes","fuel:octane_92":"yes","name":"Pertamina 34-17546","@geometry":"center"},"geometry":{"type":"Point","coordinates":[107.1824772,-6.3266987]},"id":"way/1366103845"},{"type":"Feature","properties":{"@id":"way/1375332185","amenity":"fuel","brand":"BP","brand:wikidata":"Q152057","fuel:diesel":"yes","fuel:octane_92":"yes","fuel:octane_95":"yes","name":"BP","operator":"AKR","@geometry":"center"},"geometry":{"type":"Point","coordinates":[107.1533007,-6.3384234]},"id":"way/1375332185"},{"type":"Feature","properties":{"@id":"way/1375332203","addr:city":"Bekasi","addr:street":"Jalan Majapahit","amenity":"fuel","brand":"Pertamina","brand:wikidata":"Q1641044","fuel:octane_88":"yes","fuel:octane_92":"yes","fuel:octane_95":"yes","fuel:octane_98":"yes","name":"Pertamina","operator":"Pertamina","ref":"31.175.02","@geometry":"center"},"geometry":{"type":"Point","coordinates":[107.1551112,-6.343314]},"id":"way/1375332203"},{"type":"Feature","properties":{"@id":"way/1378352203","amenity":"fuel","brand":"Pertamina","brand:wikidata":"Q1641044","name":"Pertamina","@geometry":"center"},"geometry":{"type":"Point","coordinates":[107.0058273,-6.1628532]},"id":"way/1378352203"},{"type":"Feature","properties":{"@id":"way/1379018819","amenity":"fuel","brand":"Pertamina","brand:wikidata":"Q1641044","name":"Pertamina","@geometry":"center"},"geometry":{"type":"Point","coordinates":[107.0162954,-6.3867603]},"id":"way/1379018819"},{"type":"Feature","properties":{"@id":"way/1382942460","addr:city":"Bekasi","addr:postcode":"17550","addr:street":"Jalan M.H. Thamrin","amenity":"fuel","brand":"Pertamina","name":"Pertamina","opening_hours":"24/7","operator":"Pertamina","ref":"34-17510","@geometry":"center"},"geometry":{"type":"Point","coordinates":[107.1480985,-6.330931]},"id":"way/1382942460"},{"type":"Feature","properties":{"@id":"way/1396666335","amenity":"fuel","brand":"Pertamina","brand:wikidata":"Q1641044","building":"yes","fuel:octane_90":"yes","fuel:octane_92":"yes","fuel:octane_98":"yes","name":"Pertamina","payment:cash":"yes","payment:credit_cards":"yes","payment:debit_cards":"yes","self_service":"no","@geometry":"center"},"geometry":{"type":"Point","coordinates":[106.965276,-6.2334292]},"id":"way/1396666335"},{"type":"Feature","properties":{"@id":"way/1396666336","amenity":"fuel","brand":"Shell","brand:wikidata":"Q110716465","building":"yes","fuel:diesel":"yes","fuel:octane_92":"yes","fuel:octane_95":"yes","name":"Shell","payment:cash":"yes","payment:credit_cards":"yes","payment:debit_cards":"yes","payment:qris":"yes","self_service":"no","@geometry":"center"},"geometry":{"type":"Point","coordinates":[106.963263,-6.2207667]},"id":"way/1396666336"},{"type":"Feature","properties":{"@id":"way/1406390401","amenity":"fuel","brand":"Pertamina","brand:wikidata":"Q1641044","building":"yes","fuel:octane_90":"yes","fuel:octane_92":"yes","name":"Pertamina","self_service":"no","@geometry":"center"},"geometry":{"type":"Point","coordinates":[106.9653857,-6.2464258]},"id":"way/1406390401"},{"type":"Feature","properties":{"@id":"way/1475197282","amenity":"fuel","brand":"Pertamina","name":"Pertamina","operator":"Pertamina","@geometry":"center"},"geometry":{"type":"Point","coordinates":[106.9228499,-6.3804192]},"id":"way/1475197282"},{"type":"Feature","properties":{"@id":"way/1488742918","addr:city":"Kabupaten Bekasi","addr:district":"Cikarang Utara","addr:province":"Jawa Barat","addr:street":"Jalan Gatot Subroto","addr:subdistrict":"Karangraharja","amenity":"fuel","brand":"Pertamina","brand:wikidata":"Q1641044","fuel:diesel":"yes","fuel:octane_90":"yes","fuel:octane_92":"yes","name":"Pertamina","ref":"34-17503","@geometry":"center"},"geometry":{"type":"Point","coordinates":[107.1662128,-6.2585038]},"id":"way/1488742918"},{"type":"Feature","properties":{"@id":"way/1492209239","amenity":"fuel","brand":"Pertamina","name":"Pertamina","operator":"Pertamina","@geometry":"center"},"geometry":{"type":"Point","coordinates":[107.0501891,-6.3291512]},"id":"way/1492209239"},{"type":"Feature","properties":{"@id":"way/1492209240","amenity":"fuel","brand":"Pertamina","name":"Pertamina","operator":"Pertamina","@geometry":"center"},"geometry":{"type":"Point","coordinates":[107.0624221,-6.3149587]},"id":"way/1492209240"},{"type":"Feature","properties":{"@id":"way/1507069497","amenity":"fuel","brand":"Pertamina","name":"Pertamina","operator":"Pertamina","@geometry":"center"},"geometry":{"type":"Point","coordinates":[107.014672,-6.2501517]},"id":"way/1507069497"},{"type":"Feature","properties":{"@id":"node/1997186267","addr:city":"Bekasi","addr:postcode":"17530","addr:street":"Jalan Raya Cibarusah","amenity":"fuel","brand":"Pertamina","name":"SPBU 34-17504","operator":"Pertamina","phone":"+62 8983 2943"},"geometry":{"type":"Point","coordinates":[107.148342,-6.293699]},"id":"node/1997186267"},{"type":"Feature","properties":{"@id":"node/1997191731","amenity":"fuel","brand":"Pertamina"},"geometry":{"type":"Point","coordinates":[107.1647785,-6.2812218]},"id":"node/1997191731"},{"type":"Feature","properties":{"@id":"node/3052434975","amenity":"fuel","brand":"Pertamina","name":"Pertamina","opening_hours":"24/7","operator":"Pertamina"},"geometry":{"type":"Point","coordinates":[107.0374774,-6.2693046]},"id":"node/3052434975"},{"type":"Feature","properties":{"@id":"node/3409803927","amenity":"fuel","brand":"Pertamina","brand:wikidata":"Q1641044","brand:wikipedia":"en:Pertamina","name":"Pertamina","operator":"Pertamina","phone":"+62 21 82401075"},"geometry":{"type":"Point","coordinates":[107.0167532,-6.2679799]},"id":"node/3409803927"},{"type":"Feature","properties":{"@id":"node/3621116449","addr:city":"Bekasi","addr:postcode":"17550","addr:street":"Jalan Raya Cibarusah","amenity":"fuel","brand":"Pertamina","brand:wikidata":"Q1641044","brand:wikipedia":"en:Pertamina","name":"Pertamina","operator":"Pertamina","phone":"+62 21 897 4546"},"geometry":{"type":"Point","coordinates":[107.1272495,-6.3231988]},"id":"node/3621116449"},{"type":"Feature","properties":{"@id":"node/3732365452","amenity":"fuel","brand":"Pertamina","fuel:1_25":"yes","fuel:1_50":"yes","fuel:GTL_diesel":"yes","fuel:HGV_diesel":"yes","fuel:biodiesel":"yes","fuel:biogas":"no","fuel:cng":"no","fuel:diesel":"yes","fuel:electricity":"yes","fuel:lpg":"yes","fuel:octane_100":"yes","fuel:octane_91":"yes","fuel:octane_95":"yes","fuel:octane_98":"yes","name":"SPBU","operator":"PERTAMINA"},"geometry":{"type":"Point","coordinates":[107.0891216,-6.2772734]},"id":"node/3732365452"},{"type":"Feature","properties":{"@id":"node/5999457185","addr:postcode":"17214","addr:street":"Jalan Bulevar Harapan Indah","amenity":"fuel","brand":"Pertamina","brand:wikidata":"Q1641044","compressed_air":"no","name":"Pertamina","name:en":"Pertamina Gas Station 34-17205","opening_hours":"Mo-Su 06:00-22:00","operator":"Pertamina"},"geometry":{"type":"Point","coordinates":[106.974485,-6.1600505]},"id":"node/5999457185"},{"type":"Feature","properties":{"@id":"node/9468757859","amenity":"fuel","brand":"Pertamina","fuel:diesel":"yes","fuel:octane_90":"yes","fuel:octane_92":"yes","fuel:octane_98":"yes"},"geometry":{"type":"Point","coordinates":[107.1193008,-6.3511647]},"id":"node/9468757859"},{"type":"Feature","properties":{"@id":"node/11175159042","amenity":"fuel","brand":"Pertamina","name":"Pertamina","opening_hours":"24/7","operator":"Pertamina"},"geometry":{"type":"Point","coordinates":[107.0384914,-6.2707542]},"id":"node/11175159042"},{"type":"Feature","properties":{"@id":"way/258738707","addr:city":"Kota Bekasi","addr:district":"Pondok Gede","addr:postcode":17412,"addr:province":"Jawa Barat","addr:street":"Jalan Dokter Ratna","addr:subdistrict":"Jatibening","amenity":"fuel","brand":"VIVO","building":"yes","fuel:octane_90":"yes","fuel:octane_92":"yes","fuel:octane_95":"yes","layer":1,"name":"SPBU VIVO Jatibening","opening_hours":"Mo-Su 07:00-22:00","operator":"PT VIVO ENERGI INDONESIA","payment:cash":"yes","payment:credit_cards":"yes","payment:debit_cards":"yes","payment:mastercard":"yes","payment:visa":"yes","self_service":"no","@geometry":"center"},"geometry":{"type":"Point","coordinates":[106.9504496,-6.2652482]},"id":"way/258738707"},{"type":"Feature","properties":{"@id":"way/319318385","amenity":"fuel","brand":"Pertamina","fuel:diesel":"yes","fuel:octane_80":"yes","fuel:octane_91":"yes","fuel:octane_92":"yes","fuel:octane_95":"yes","fuel:octane_98":"yes","name":"Pertamina","opening_hours":"sunrise-sunset","operator":"PT Pertamina","ref":"34-17129","shop":"convenience","@geometry":"center"},"geometry":{"type":"Point","coordinates":[107.0150062,-6.2421125]},"id":"way/319318385"},{"type":"Feature","properties":{"@id":"way/319318386","addr:city":"Kota Bekasi","addr:street":"Jalan KH. Agus Salim","amenity":"fuel","brand":"Pertamina","brand:wikidata":"Q1641044","fuel:biodiesel":"yes","fuel:diesel":"yes","fuel:octane_80":"yes","fuel:octane_91":"yes","fuel:octane_92":"yes","fuel:octane_95":"yes","fuel:octane_98":"yes","name":"Pertamina 34-17135","operator":"PT Pertamina","shop":"no","@geometry":"center"},"geometry":{"type":"Point","coordinates":[107.0073898,-6.2357182]},"id":"way/319318386"},{"type":"Feature","properties":{"@id":"way/319326270","addr:postcode":17113,"addr:street":"Jalan RA Kartini","amenity":"fuel","brand":"Pertamina","brand:wikidata":"Q1641044","brand:wikipedia":"en:Pertamina","building":"yes","fuel:biodiesel":"yes","fuel:diesel":"yes","fuel:octane_80":"yes","fuel:octane_90":"yes","fuel:octane_92":"yes","fuel:octane_98":"yes","name":"Pertamina","operator":"PT Pertamina","phone":"+62 8835 4533","self_service":"no","@geometry":"center"},"geometry":{"type":"Point","coordinates":[107.0000144,-6.2498179]},"id":"way/319326270"},{"type":"Feature","properties":{"@id":"way/339671044","addr:city":"Bekasi","addr:street":"Jalan H. Mulyadi Joyomartono","amenity":"fuel","brand":"Pertamina","fuel:diesel":"yes","fuel:octane_88":"yes","fuel:octane_92":"yes","name":"Pertamina","operator":"Pertamina","phone":"+62 882 3686","ref":"34-17119","toilets":"yes","@geometry":"center"},"geometry":{"type":"Point","coordinates":[107.0232175,-6.253108]},"id":"way/339671044"},{"type":"Feature","properties":{"@id":"way/340168690","addr:city":"Bekasi","addr:street":"Jalan Ahmad Yani","amenity":"fuel","atm":"yes","brand":"Pertamina","fuel:diesel":"yes","fuel:octane_88":"yes","fuel:octane_92":"yes","name":"Pertamina","opening_hours":"24/7","operator":"Pertamina","ref":"34-17141","toilets":"yes","@geometry":"center"},"geometry":{"type":"Point","coordinates":[106.9940432,-6.2581591]},"id":"way/340168690"},{"type":"Feature","properties":{"@id":"way/342033408","addr:city":"Kota Bekasi","addr:district":"Bekasi Selatan","addr:housenumber":1,"addr:postcode":17141,"addr:province":"Jawa Barat","addr:street":"Jalan Ahmad Yani","addr:subdistrict":"Marga Jaya","amenity":"fuel","brand":"Shell","brand:wikidata":"Q110716465","building":"roof","fuel:GTL_diesel":"yes","fuel:octane_92":"yes","fuel:octane_95":"yes","fuel:octane_98":"yes","layer":1,"name":"Shell Ahmad Yani-1 BKS","opening_hours":"Mo-Su 06:00-22:00","operator":"Shell PLC","payment:cash":"yes","payment:credit_cards":"yes","payment:debit_cards":"yes","payment:mastercard":"yes","payment:visa":"yes","phone":"+62218844870","self_service":"no","@geometry":"center"},"geometry":{"type":"Point","coordinates":[106.9927278,-6.2485694]},"id":"way/342033408"},{"type":"Feature","properties":{"@id":"way/356386391","addr:city":"Bekasi","addr:housenumber":1,"addr:street":"Jalan Ahmad Yani","amenity":"fuel","brand":"Pertamina","brand:wikidata":"Q1641044","brand:wikipedia":"en:Pertamina","building":"yes","fuel:diesel":"yes","fuel:diesel_1":"dex","fuel:lpg":"yes","fuel:octane_88":"yes","fuel:octane_92":"yes","fuel:octane_95":"yes","name":"SPBU Pertamina 31.171.01","opening_hours":"24/7","operator":"Pertamina","toilets":"yes","@geometry":"center"},"geometry":{"type":"Point","coordinates":[106.9921626,-6.2509672]},"id":"way/356386391"},{"type":"Feature","properties":{"@id":"way/356696357","addr:city":"Bekasi","addr:postcode":17530,"addr:street":"Jalan Sumatra","amenity":"fuel","brand":"Pertamina","name":"Pertamina","operator":"Pertamina","phone":"+62 21 898 1044","ref":"34-17514","@geometry":"center"},"geometry":{"type":"Point","coordinates":[107.0794058,-6.292511]},"id":"way/356696357"},{"type":"Feature","properties":{"@id":"way/356696358","addr:postcode":17530,"addr:street":"Jalan M.H. Thamrin","amenity":"fuel","brand":"Pertamina","brand:wikidata":"Q1641044","brand:wikipedia":"en:Pertamina","name":"Pertamina","operator":"Pertamina","phone":"+62 21 8990 8037","@geometry":"center"},"geometry":{"type":"Point","coordinates":[107.1297291,-6.3301687]},"id":"way/356696358"},{"type":"Feature","properties":{"@id":"way/357732711","addr:city":"Bekasi","addr:street":"Jalan Inspeksi Kalimalang","amenity":"fuel","atm":"yes","brand":"Pertamina","fuel:diesel":"yes","fuel:diesel_1":"dex","fuel:octane_88":"yes","fuel:octane_92":"yes","name":"Pertamina","opening_hours":"24/7","operator":"Pertamina","ref":"34-17127","shop":"convenience","toilets":"yes","@geometry":"center"},"geometry":{"type":"Point","coordinates":[107.0145247,-6.2591285]},"id":"way/357732711"},{"type":"Feature","properties":{"@id":"way/359275175","addr:city":"Bekasi","addr:street":"Jalan Pekayon Raya","amenity":"fuel","brand":"Pertamina","brand:wikidata":"Q1641044","building":"yes","fuel:diesel":"yes","fuel:octane_90":"yes","fuel:octane_92":"yes","layer":1,"name":"Pertamina","operator":"Pertamina","payment:cash":"yes","ref":"34-17122","self_service":"no","toilets":"yes","@geometry":"center"},"geometry":{"type":"Point","coordinates":[106.9884226,-6.256913]},"id":"way/359275175"},{"type":"Feature","properties":{"@id":"way/361647471","addr:city":"Kota Bekasi","addr:street":"Jalan Pekayon Raya","amenity":"fuel","brand":"Pertamina","brand:wikidata":"Q1641044","compressed_air":"no","fuel:octane_90":"yes","fuel:octane_92":"yes","name":"Pertamina 34-17105","self_service":"no","@geometry":"center"},"geometry":{"type":"Point","coordinates":[106.9728138,-6.2789544]},"id":"way/361647471"},{"type":"Feature","properties":{"@id":"way/361647585","addr:city":"Kota Bekasi","addr:postcode":17424,"addr:street":"Jalan Swatantra-Jatiasih","amenity":"fuel","brand":"Pertamina","brand:wikidata":"Q1641044","building":"yes","compressed_air":"no","fuel:octane_90":"yes","fuel:octane_92":"yes","fuel:octane_98":"yes","name":"Pertamina 34.174.17","self_service":"no","@geometry":"center"},"geometry":{"type":"Point","coordinates":[106.9683299,-6.2874806]},"id":"way/361647585"},{"type":"Feature","properties":{"@id":"way/363096059","addr:street":"Cikunir Raya","amenity":"fuel","brand":"Pertamina","brand:wikidata":"Q1641044","brand:wikipedia":"en:Pertamina","building":"yes","fuel:octane_90":"yes","fuel:octane_92":"yes","fuel:octane_98":"yes","name":"Pertamina 34 171 43","self_service":"no","@geometry":"center"},"geometry":{"type":"Point","coordinates":[106.9592399,-6.2593391]},"id":"way/363096059"},{"type":"Feature","properties":{"@id":"way/363648757","addr:city":"Bekasi","addr:street":"Jalan Siliwangi","amenity":"fuel","atm":"yes","brand":"Pertamina","brand:wikidata":"Q1641044","fuel:diesel":"yes","fuel:diesel_1":"dex","fuel:octane_90":"yes","fuel:octane_92":"yes","name":"Pertamina 34.17145","opening_hours":"24/7","operator":"Pertamina","self_service":"no","toilets":"yes","@geometry":"center"},"geometry":{"type":"Point","coordinates":[106.9936983,-6.2707806]},"id":"way/363648757"},{"type":"Feature","properties":{"@id":"way/400316130","amenity":"fuel","brand":"Pertamina","name":"Pertamina","operator":"Pertamina","@geometry":"center"},"geometry":{"type":"Point","coordinates":[107.2058052,-6.3485189]},"id":"way/400316130"},{"type":"Feature","properties":{"@id":"way/400316132","amenity":"fuel","brand":"Pertamina","name":"Pertamina","operator":"Pertamina","@geometry":"center"},"geometry":{"type":"Point","coordinates":[107.2045382,-6.3474474]},"id":"way/400316132"},{"type":"Feature","properties":{"@id":"way/480994691","amenity":"fuel","brand":"Pertamina","name":"Pertamina","operator":"Pertamina","@geometry":"center"},"geometry":{"type":"Point","coordinates":[107.0559502,-6.1353901]},"id":"way/480994691"},{"type":"Feature","properties":{"@id":"way/499264767","addr:street":"Jalan I Gusti Ngurah Rai","amenity":"fuel","brand":"Pertamina","brand:wikidata":"Q1641044","brand:wikipedia":"en:Pertamina","building":"roof","fuel:diesel":"yes","fuel:octane_90":"yes","fuel:octane_92":"yes","fuel:octane_98":"yes","name":"Pertamina","@geometry":"center"},"geometry":{"type":"Point","coordinates":[106.9646148,-6.2211238]},"id":"way/499264767"},{"type":"Feature","properties":{"@id":"way/500909584","addr:city":"Kota Bekasi","addr:street":"Jalan Perjuangan","amenity":"fuel","brand":"Pertamina","brand:wikidata":"Q1641044","building":"yes","name":"Pertamina 34-17139","@geometry":"center"},"geometry":{"type":"Point","coordinates":[107.0181711,-6.2214344]},"id":"way/500909584"},{"type":"Feature","properties":{"@id":"way/501946101","addr:city":"Kabupaten Bekasi","addr:street":"Jalan Raya Ujung Harapan","amenity":"fuel","brand":"Pertamina","brand:wikidata":"Q1641044","building":"yes","name":"Pertamina 34-17148","@geometry":"center"},"geometry":{"type":"Point","coordinates":[107.0066819,-6.1892753]},"id":"way/501946101"},{"type":"Feature","properties":{"@id":"way/504672784","addr:street":"Jalan Jati Waringin","amenity":"fuel","brand":"Pertamina","brand:wikidata":"Q1641044","building":"roof","name":"Pertamina","@geometry":"center"},"geometry":{"type":"Point","coordinates":[106.912987,-6.2753222]},"id":"way/504672784"},{"type":"Feature","properties":{"@id":"way/506543152","addr:city":"Kab. Bekasi","addr:district":"Karangbahagia","addr:postcode":17530,"addr:province":"Jawa Barat","addr:street":"Jalan Raya Cikarang Sukatani","addr:subdistrict":"Karangsentosa","amenity":"fuel","brand":"Pertamina","brand:wikidata":"Q1641044","building":"yes","name":"Pertamina 34.175.32","self_service":"no","@geometry":"center"},"geometry":{"type":"Point","coordinates":[107.1781579,-6.1760996]},"id":"way/506543152"},{"type":"Feature","properties":{"@id":"way/512827516","addr:street":"Jalan Hankam Raya","amenity":"fuel","brand":"Pertamina","brand:wikidata":"Q1641044","brand:wikipedia":"en:Pertamina","building":"roof","layer":1,"name":"Pertamina","@geometry":"center"},"geometry":{"type":"Point","coordinates":[106.9220711,-6.2974438]},"id":"way/512827516"},{"type":"Feature","properties":{"@id":"way/545217896","amenity":"fuel","brand":"Pertamina","brand:wikidata":"Q1641044","name":"Pertamina","operator":"Pertamina","self_service":"no","@geometry":"center"},"geometry":{"type":"Point","coordinates":[107.0014355,-6.2689165]},"id":"way/545217896"},{"type":"Feature","properties":{"@id":"way/558715851","amenity":"fuel","brand":"Pertamina","brand:wikidata":"Q1641044","brand:wikipedia":"en:Pertamina","name":"Pertamina","@geometry":"center"},"geometry":{"type":"Point","coordinates":[107.0167581,-6.2679767]},"id":"way/558715851"},{"type":"Feature","properties":{"@id":"way/720893941","addr:city":"Bekasi","addr:street":"Jalan Jati Makmur","amenity":"fuel","brand":"Pertamina","brand:wikidata":"Q1641044","brand:wikipedia":"en:Pertamina","building":"roof","fuel:octane_90":"yes","fuel:octane_92":"yes","layer":1,"name":"Pertamina","self_service":"no","@geometry":"center"},"geometry":{"type":"Point","coordinates":[106.9228032,-6.2860245]},"id":"way/720893941"},{"type":"Feature","properties":{"@id":"way/720893950","amenity":"fuel","brand":"Pertamina","brand:wikidata":"Q1641044","brand:wikipedia":"en:Pertamina","fuel:octane_90":"yes","fuel:octane_92":"yes","fuel:octane_98":"yes","name":"Pertamina 34-17413","opening_hours":"24/7","self_service":"no","@geometry":"center"},"geometry":{"type":"Point","coordinates":[106.9611656,-6.2931113]},"id":"way/720893950"},{"type":"Feature","properties":{"@id":"way/720898009","amenity":"fuel","brand":"Pertamina","brand:wikidata":"Q1641044","brand:wikipedia":"en:Pertamina","name":"Pertamina","@geometry":"center"},"geometry":{"type":"Point","coordinates":[106.9392584,-6.288445]},"id":"way/720898009"},{"type":"Feature","properties":{"@id":"way/720898011","addr:street":"Kodau","amenity":"fuel","brand":"Pertamina","brand:wikidata":"Q1641044","brand:wikipedia":"en:Pertamina","building":"roof","name":"Pertamina","self_service":"no","@geometry":"center"},"geometry":{"type":"Point","coordinates":[106.9368699,-6.3052006]},"id":"way/720898011"},{"type":"Feature","properties":{"@id":"way/721054979","addr:city":"Kota Bekasi","addr:postcode":17422,"addr:street":"Jalan Raya Jatimekar","amenity":"fuel","brand":"Pertamina","brand:wikidata":"Q1641044","brand:wikipedia":"en:Pertamina","building":"roof","layer":1,"name":"Pertamina","@geometry":"center"},"geometry":{"type":"Point","coordinates":[106.9513746,-6.2865746]},"id":"way/721054979"},{"type":"Feature","properties":{"@id":"way/721087263","amenity":"fuel","brand":"Pertamina","brand:wikidata":"Q1641044","brand:wikipedia":"en:Pertamina","name":"Pertamina","@geometry":"center"},"geometry":{"type":"Point","coordinates":[107.1393456,-6.3160715]},"id":"way/721087263"},{"type":"Feature","properties":{"@id":"way/721087265","addr:street":"Jalan Dokter Ratna","amenity":"fuel","brand":"Pertamina","brand:wikidata":"Q1641044","brand:wikipedia":"en:Pertamina","building":"roof","layer":1,"name":"Pertamina","@geometry":"center"},"geometry":{"type":"Point","coordinates":[106.9505951,-6.2702546]},"id":"way/721087265"},{"type":"Feature","properties":{"@id":"way/721087266","addr:city":"Kota Bekasi","addr:district":"Pondok Gede","addr:postcode":17412,"addr:province":"Jawa Barat","addr:street":"Jalan Caman Raya","addr:subdistrict":"Jatibening","amenity":"fuel","brand":"Shell","brand:wikidata":"Q110716465","building":"roof","fuel:GTL_diesel":"yes","fuel:octane_92":"yes","fuel:octane_95":"yes","fuel:octane_98":"yes","layer":1,"name":"Shell Jatibening-1 Bekasi","opening_hours":"Mo-Su 06:00-22:00","operator":"Shell PLC","payment:cash":"yes","payment:credit_cards":"yes","payment:debit_cards":"yes","payment:mastercard":"yes","payment:visa":"yes","phone":"+622184975345","self_service":"no","@geometry":"center"},"geometry":{"type":"Point","coordinates":[106.949481,-6.2584509]},"id":"way/721087266"},{"type":"Feature","properties":{"@id":"way/721087293","amenity":"fuel","brand":"Pertamina","brand:wikidata":"Q1641044","brand:wikipedia":"en:Pertamina","building":"roof","compressed_air":"yes","name":"Pertamina","@geometry":"center"},"geometry":{"type":"Point","coordinates":[106.9596128,-6.249011]},"id":"way/721087293"},{"type":"Feature","properties":{"@id":"way/721506627","amenity":"fuel","brand":"Pertamina","brand:wikidata":"Q1641044","brand:wikipedia":"en:Pertamina","name":"Pertamina","@geometry":"center"},"geometry":{"type":"Point","coordinates":[106.9460029,-6.3297398]},"id":"way/721506627"},{"type":"Feature","properties":{"@id":"way/749894930","addr:city":"Kota Bekasi","addr:district":"Bekasi Barat","addr:housenumber":109,"addr:postcode":17145,"addr:province":"Jawa Barat","addr:street":"Jalan Raya Kalimalang","addr:subdistrict":"Jakasampurna","amenity":"fuel","brand":"Shell","brand:wikidata":"Q110716465","building":"roof","fuel:GTL_diesel":"yes","fuel:octane_92":"yes","fuel:octane_95":"yes","layer":1,"name":"Shell Noer Ali-1 Bekasi","opening_hours":"Mo-Su 06:00-22:00","operator":"Shell PLC","payment:cash":"yes","payment:credit_cards":"yes","payment:debit_cards":"yes","payment:mastercard":"yes","payment:visa":"yes","phone":"+622186907716","self_service":"no","@geometry":"center"},"geometry":{"type":"Point","coordinates":[106.9490449,-6.2493887]},"id":"way/749894930"},{"type":"Feature","properties":{"@id":"way/753133273","addr:street":"Jalan Kemang Sari Raya","amenity":"fuel","brand":"Pertamina","brand:wikidata":"Q1641044","brand:wikipedia":"en:Pertamina","building":"roof","fuel:octane_90":"yes","fuel:octane_92":"yes","layer":1,"name":"Pertamina 34-17115","self_service":"no","@geometry":"center"},"geometry":{"type":"Point","coordinates":[106.9352392,-6.2744279]},"id":"way/753133273"},{"type":"Feature","properties":{"@id":"way/753358863","addr:street":"Jalan Jati Waringin","amenity":"fuel","brand":"Pertamina","brand:wikidata":"Q1641044","building":"roof","name":"Pertamina","@geometry":"center"},"geometry":{"type":"Point","coordinates":[106.911666,-6.2704225]},"id":"way/753358863"},{"type":"Feature","properties":{"@id":"way/762984285","addr:city":"Bekasi","addr:postcode":17132,"addr:street":"Jalan Sultan Agung","amenity":"fuel","brand":"Pertamina","brand:wikidata":"Q1641044","building":"yes","fuel:octane_90":"yes","fuel:octane_92":"yes","name":"Pertamina 34-17117","roof":"y","@geometry":"center"},"geometry":{"type":"Point","coordinates":[106.9774361,-6.2089562]},"id":"way/762984285"},{"type":"Feature","properties":{"@id":"way/762988167","addr:city":"Kota Bekasi","addr:street":"Jalan Sultan Agung","amenity":"fuel","brand":"Pertamina","brand:wikidata":"Q1641044","brand:wikipedia":"en:Pertamina","building":"yes","fuel:octane_90":"yes","fuel:octane_92":"yes","fuel:octane_98":"yes","name":"Pertamina 31.171.05","self_service":"no","@geometry":"center"},"geometry":{"type":"Point","coordinates":[106.9764999,-6.2016857]},"id":"way/762988167"},{"type":"Feature","properties":{"@id":"way/763451717","addr:city":"Kota Bekasi","addr:district":"Bekasi Selatan","addr:postcode":17143,"addr:province":"Jawa Barat","addr:street":"Jalan Jenderal Sudirman","addr:subdistrict":"Kayuringin Jaya","amenity":"fuel","brand":"VIVO","building":"yes","fuel:octane_90":"yes","fuel:octane_92":"yes","fuel:octane_95":"yes","layer":1,"name":"SPBU VIVO Bekasi","opening_hours":"Mo-Su 07:00-22:00","operator":"PT VIVO ENERGI INDONESIA","payment:cash":"yes","payment:credit_cards":"yes","payment:debit_cards":"yes","payment:mastercard":"yes","payment:visa":"yes","self_service":"no","wikidata":"Q114877518","@geometry":"center"},"geometry":{"type":"Point","coordinates":[106.9872385,-6.2313366]},"id":"way/763451717"},{"type":"Feature","properties":{"@id":"way/764282277","addr:city":"Bekasi","addr:street":"Jalan Ir. Haji Juanda","amenity":"fuel","atm":"yes","brand":"Pertamina","brand:wikidata":"Q1641044","brand:wikipedia":"en:Pertamina","building":"roof","fuel:diesel":"dex","fuel:octane_88":"yes","fuel:octane_92":"yes","fuel:octane_95":"yes","name":"Pertamina","operator":"PT Pertamina","toilets":"yes","@geometry":"center"},"geometry":{"type":"Point","coordinates":[106.9943725,-6.233756]},"id":"way/764282277"},{"type":"Feature","properties":{"@id":"way/906960710","amenity":"fuel","brand":"Pertamina","brand:wikidata":"Q1641044","brand:wikipedia":"en:Pertamina","name":"Pertamina","operator":"34.175.45","@geometry":"center"},"geometry":{"type":"Point","coordinates":[107.0196271,-6.2772364]},"id":"way/906960710"},{"type":"Feature","properties":{"@id":"way/1071789922","amenity":"fuel","brand":"Pertamina","brand:wikidata":"Q1641044","building":"yes","name":"Pertamina 34.17518","@geometry":"center"},"geometry":{"type":"Point","coordinates":[107.0312063,-6.2917771]},"id":"way/1071789922"},{"type":"Feature","properties":{"@id":"way/1072138407","amenity":"fuel","brand":"Pertamina","brand:wikidata":"Q1641044","name":"Pertamina SPBU 34-17538","phone":"+62 8265 1324","@geometry":"center"},"geometry":{"type":"Point","coordinates":[107.0402724,-6.2794459]},"id":"way/1072138407"},{"type":"Feature","properties":{"@id":"way/1072138409","addr:postcode":17510,"addr:street":"Jalan Boulevard Grand Wisata","amenity":"fuel","brand":"Shell","brand:wikidata":"Q110716465","building":"roof","fuel:diesel":"yes","fuel:octane_92":"yes","fuel:octane_95":"yes","name":"Shell","operator":"Shell","phone":"+62 21 2908 8012","ref":11945276,"tenant":"Christian Tirtakusuma","toilets":"yes","@geometry":"center"},"geometry":{"type":"Point","coordinates":[107.0451247,-6.2767703]},"id":"way/1072138409"},{"type":"Feature","properties":{"@id":"way/1077368582","amenity":"fuel","brand":"Pertamina","brand:wikidata":"Q1641044","building":"roof","name":"Pertamina","@geometry":"center"},"geometry":{"type":"Point","coordinates":[106.926679,-6.2584714]},"id":"way/1077368582"},{"type":"Feature","properties":{"@id":"way/1077368583","amenity":"fuel","brand":"Pertamina","brand:wikidata":"Q1641044","building":"roof","name":"Pertamina","@geometry":"center"},"geometry":{"type":"Point","coordinates":[106.9283869,-6.2584418]},"id":"way/1077368583"},{"type":"Feature","properties":{"@id":"way/1133030695","addr:city":"Bekasi","addr:street":"Jalan Kaliabang","amenity":"fuel","brand":"Pertamina","brand:wikidata":"Q1641044","fuel:octane_90":"yes","name":"Pertamina 34-1714000","@geometry":"center"},"geometry":{"type":"Point","coordinates":[107.0031648,-6.203581]},"id":"way/1133030695"},{"type":"Feature","properties":{"@id":"way/1133030696","addr:city":"Kota Bekasi","addr:street":"Jalan Prima Harapan Regensi","amenity":"fuel","brand":"Pertamina","brand:wikidata":"Q1641044","name":"Pertamina 34-17136","@geometry":"center"},"geometry":{"type":"Point","coordinates":[107.0174771,-6.2068609]},"id":"way/1133030696"},{"type":"Feature","properties":{"@id":"way/1133030697","addr:city":"Kota Bekasi","addr:street":"Jalan Pangeran Jayakarta","amenity":"fuel","brand":"Pertamina","brand:wikidata":"Q1641044","name":"Pertamina 34-17137","@geometry":"center"},"geometry":{"type":"Point","coordinates":[106.98681,-6.2269268]},"id":"way/1133030697"},{"type":"Feature","properties":{"@id":"way/1133030698","addr:city":"Kota Bekasi","addr:street":"Jalan Perjuangan","amenity":"fuel","brand":"Pertamina","brand:wikidata":"Q1641044","name":"Pertamina 34-17107","@geometry":"center"},"geometry":{"type":"Point","coordinates":[107.0155057,-6.2219183]},"id":"way/1133030698"},{"type":"Feature","properties":{"@id":"way/1164032128","addr:city":"Kota Bekasi","addr:postcode":17147,"addr:street":"Jalan Pulau Ribung","amenity":"fuel","brand":"BP","brand:wikidata":"Q152057","building":"yes","fuel:diesel":"yes","fuel:octane_90":"yes","fuel:octane_92":"yes","fuel:octane_95":"yes","name":"BP Grand Galaxy","opening_hours":"Mo-Su 06:00-22:00","payment:cash":"yes","payment:credit_cards":"yes","payment:debit_cards":"yes","payment:qris":"yes","phone":"+628559990060","self_service":"no","toilets":"customers","@geometry":"center"},"geometry":{"type":"Point","coordinates":[106.9745174,-6.2673701]},"id":"way/1164032128"},{"type":"Feature","properties":{"@id":"way/1182492260","addr:city":"Kota Bekasi","addr:district":"Bekasi Selatan","addr:postcode":17147,"addr:province":"Jawa Barat","addr:street":"Jalan Pekayon Raya","addr:subdistrict":"Jaka Setia","amenity":"fuel","brand":"VIVO","building":"yes","fuel:octane_90":"yes","fuel:octane_92":"yes","fuel:octane_95":"yes","layer":1,"name":"SPBU VIVO Pekayon","opening_hours":"Mo-Su 07:00-22:00","operator":"PT VIVO ENERGI INDONESIA","payment:cash":"yes","payment:credit_cards":"yes","payment:debit_cards":"yes","payment:mastercard":"yes","payment:visa":"yes","self_service":"no","wikidata":"Q114877518","@geometry":"center"},"geometry":{"type":"Point","coordinates":[106.9755208,-6.2764232]},"id":"way/1182492260"},{"type":"Feature","properties":{"@id":"way/1186775237","addr:city":"Kota Bekasi","addr:district":"Jatiasih","addr:postcode":17423,"addr:province":"Jawa Barat","addr:street":"Jalan Swatantra V","amenity":"fuel","brand":"Pertamina","brand:wikidata":"Q1641044","brand:wikipedia":"en:Pertamina","building":"yes","layer":-1,"name":"SPBU 34.174.14","operator":"Pertamina","@geometry":"center"},"geometry":{"type":"Point","coordinates":[106.9685657,-6.2963801]},"id":"way/1186775237"},{"type":"Feature","properties":{"@id":"way/1189529827","addr:city":"Kota Bekasi","addr:district":"Jatiasih","addr:housenumber":"2A","addr:postcode":17421,"addr:province":"Jawa Barat","addr:street":"Jalan Raya Jatikramat","addr:subdistrict":"Jatikramat","amenity":"fuel","brand":"VIVO","building":"yes","fuel:octane_90":"yes","fuel:octane_92":"yes","fuel:octane_95":"yes","layer":1,"name":"SPBU VIVO Jatikramat","opening_hours":"Mo-Su 07:00-22:00","operator":"PT VIVO ENERGI INDONESIA","payment:cash":"yes","payment:credit_cards":"yes","payment:debit_cards":"yes","payment:mastercard":"yes","payment:visa":"yes","self_service":"no","wikidata":"Q114877518","@geometry":"center"},"geometry":{"type":"Point","coordinates":[106.9444374,-6.286979]},"id":"way/1189529827"},{"type":"Feature","properties":{"@id":"way/1194279853","addr:city":"Kota Bekasi","addr:district":"Jatiasih","addr:housenumber":2,"addr:postcode":17424,"addr:province":"Jawa Barat","addr:street":"Jalan Swatantra-Jatiasih","addr:subdistrict":"Jatirasa","amenity":"fuel","brand":"Shell","brand:wikidata":"Q110716465","building":"roof","fuel:GTL_diesel":"yes","fuel:octane_92":"yes","fuel:octane_95":"yes","fuel:octane_98":"yes","layer":1,"name":"Shell Raya Pekayon-1 Bekasi","opening_hours":"Mo-Su 00:00-23:59","operator":"Shell PLC","payment:cash":"yes","payment:credit_cards":"yes","payment:debit_cards":"yes","payment:mastercard":"yes","payment:visa":"yes","phone":"+622182755343","self_service":"no","@geometry":"center"},"geometry":{"type":"Point","coordinates":[106.9674629,-6.2867674]},"id":"way/1194279853"},{"type":"Feature","properties":{"@id":"way/1197333409","amenity":"fuel","brand":"Pertamina","brand:wikidata":"Q1641044","fuel:octane_90":"yes","fuel:octane_92":"yes","name":"Pertamina 34-17130","self_service":"no","@geometry":"center"},"geometry":{"type":"Point","coordinates":[106.9993633,-6.1765627]},"id":"way/1197333409"},{"type":"Feature","properties":{"@id":"way/1198258366","addr:city":"Bekasi","addr:street":"Jalan Harapan Indah Raya","amenity":"fuel","brand":"Pertamina","brand:wikidata":"Q1641044","compressed_air":"no","fuel:octane_90":"yes","fuel:octane_92":"yes","name":"Pertamina 34-17123","self_service":"no","@geometry":"center"},"geometry":{"type":"Point","coordinates":[106.9775168,-6.1854974]},"id":"way/1198258366"},{"type":"Feature","properties":{"@id":"way/1207349667","addr:city":"Bekasi","addr:postcode":17214,"addr:street":"Jalan Harapan Indah Bulevar","amenity":"fuel","brand":"BP","brand:wikidata":"Q152057","fuel:diesel":"yes","fuel:octane_90":"yes","fuel:octane_92":"yes","fuel:octane_95":"yes","name":"BP AKR Kota Harapan Indah","opening_hours":"Mo-Su 06:00-22:00","self_service":"no","@geometry":"center"},"geometry":{"type":"Point","coordinates":[106.9742197,-6.1696213]},"id":"way/1207349667"},{"type":"Feature","properties":{"@id":"way/1207433117","addr:city":"Kota Bekasi","addr:district":"Bekasi Selatan","addr:postcode":17141,"addr:province":"Jawa Barat","addr:street":"Jalan Ahmad Yani","addr:subdistrict":"Marga Jaya","amenity":"fuel","brand":"VIVO","building":"yes","covered":"yes","fuel:octane_90":"yes","fuel:octane_92":"yes","fuel:octane_95":"yes","layer":1,"name":"SPBU VIVO Margajaya","opening_hours":"Mo-Su 07:00-22:00","operator":"PT VIVO ENERGI INDONESIA","payment:cash":"yes","payment:credit_cards":"yes","payment:debit_cards":"yes","payment:mastercard":"yes","payment:visa":"yes","self_service":"no","wikidata":"Q114877518","@geometry":"center"},"geometry":{"type":"Point","coordinates":[106.9923156,-6.2501479]},"id":"way/1207433117"},{"type":"Feature","properties":{"@id":"way/1255477481","addr:city":"Kota Bekasi","addr:district":"Jatiasih","addr:housenumber":66,"addr:postcode":17422,"addr:province":"Jawa Barat","addr:street":"Jalan Raya Jatikramat","addr:subdistrict":"Jatimekar","amenity":"fuel","brand":"Shell","brand:wikidata":"Q110716465","building":"roof","fuel:GTL_diesel":"yes","fuel:octane_92":"yes","fuel:octane_95":"yes","layer":1,"name":"Shell Jatimekar-1","opening_hours":"Mo-Su 00:00-23:59","operator":"Shell PLC","payment:cash":"yes","payment:credit_cards":"yes","payment:debit_cards":"yes","payment:mastercard":"yes","payment:visa":"yes","phone":"+622185522968","self_service":"no","@geometry":"center"},"geometry":{"type":"Point","coordinates":[106.9460942,-6.28634]},"id":"way/1255477481"},{"type":"Feature","properties":{"@id":"way/1255482556","addr:city":"Kota Bekasi","addr:district":"Jatiasih","addr:housenumber":22,"addr:postcode":17423,"addr:province":"Jawa Barat","addr:street":"Jalan Wibawa Mukti II","addr:subdistrict":"Jatiasih","amenity":"fuel","brand":"Shell","brand:wikidata":"Q110716465","building":"roof","fuel:GTL_diesel":"yes","fuel:octane_92":"yes","fuel:octane_95":"yes","layer":1,"name":"Shell Wibawa Mukti-1 BKS","opening_hours":"Mo-Su 00:00-23:59","operator":"Shell PLC","payment:cash":"yes","payment:credit_cards":"yes","payment:debit_cards":"yes","payment:mastercard":"yes","payment:visa":"yes","phone":"+622182784144","self_service":"no","@geometry":"center"},"geometry":{"type":"Point","coordinates":[106.9537876,-6.3086122]},"id":"way/1255482556"},{"type":"Feature","properties":{"@id":"way/1255482560","addr:city":"Kota Bekasi","addr:district":"Rawalumbu","addr:postcode":17117,"addr:province":"Jawa Barat","addr:street":"Jalan Baru Cipendawa","addr:subdistrict":"Bojong Menteng","amenity":"fuel","brand":"Shell","brand:wikidata":"Q110716465","building":"roof","fuel:GTL_diesel":"yes","fuel:octane_92":"yes","fuel:octane_95":"yes","layer":1,"name":"Shell Cipendawa-1 BKS","opening_hours":"Mo-Su 06:00-22:00","operator":"Shell PLC","payment:cash":"yes","payment:credit_cards":"yes","payment:debit_cards":"yes","payment:mastercard":"yes","payment:visa":"yes","phone":"+622182766066","self_service":"no","@geometry":"center"},"geometry":{"type":"Point","coordinates":[106.9761127,-6.2999915]},"id":"way/1255482560"},{"type":"Feature","properties":{"@id":"way/1255482569","addr:city":"Kota Bekasi","addr:district":"Rawalumbu","addr:housenumber":"139B","addr:postcode":17114,"addr:province":"Jawa Barat","addr:street":"Jalan Cut Mutia","addr:subdistrict":"Sepanjang Jaya","amenity":"fuel","brand":"Shell","brand:wikidata":"Q110716465","building":"roof","fuel:GTL_diesel":"yes","fuel:octane_92":"yes","fuel:octane_95":"yes","fuel:octane_98":"yes","layer":1,"name":"Shell Cut Mutia-2 BEKASI","opening_hours":"Mo-Su 06:00-22:00","operator":"Shell PLC","payment:cash":"yes","payment:credit_cards":"yes","payment:debit_cards":"yes","payment:mastercard":"yes","payment:visa":"yes","phone":"+622182765404","self_service":"no","@geometry":"center"},"geometry":{"type":"Point","coordinates":[107.0025478,-6.2605758]},"id":"way/1255482569"},{"type":"Feature","properties":{"@id":"way/1255482573","addr:city":"Kota Bekasi","addr:district":"Bekasi Barat","addr:postcode":17145,"addr:province":"Jawa Barat","addr:street":"Jalan K. H. Noer Ali","addr:subdistrict":"Jakasampurna","amenity":"fuel","brand":"Shell","brand:wikidata":"Q110716465","building":"roof","fuel:GTL_diesel":"yes","fuel:octane_92":"yes","fuel:octane_95":"yes","layer":1,"name":"Shell Noer Ali-2","opening_hours":"Mo-Su 05:00-22:00","operator":"Shell PLC","payment:cash":"yes","payment:credit_cards":"yes","payment:debit_cards":"yes","payment:mastercard":"yes","payment:visa":"yes","phone":"+62 21 8946812","self_service":"no","@geometry":"center"},"geometry":{"type":"Point","coordinates":[106.9713286,-6.2499043]},"id":"way/1255482573"},{"type":"Feature","properties":{"@id":"way/1255482580","addr:city":"Kota Bekasi","addr:district":"Pondok Gede","addr:housenumber":"41-4","addr:postcode":17411,"addr:province":"Jawa Barat","addr:street":"Jalan Jati Waringin","addr:subdistrict":"Jatiwaringin","amenity":"fuel","brand":"Shell","brand:wikidata":"Q110716465","building":"roof","fuel:GTL_diesel":"yes","fuel:octane_92":"yes","fuel:octane_95":"yes","layer":1,"name":"Shell Pondok Gede-1 BKS","opening_hours":"Mo-Su 06:00-22:00","operator":"Shell PLC","payment:cash":"yes","payment:credit_cards":"yes","payment:debit_cards":"yes","payment:mastercard":"yes","payment:visa":"yes","phone":"+622185211909","self_service":"no","@geometry":"center"},"geometry":{"type":"Point","coordinates":[106.911986,-6.2694746]},"id":"way/1255482580"},{"type":"Feature","properties":{"@id":"way/1302200264","addr:city":"Kota Bekasi","addr:street":"Jalan Raya Narogong","amenity":"fuel","brand":"Pertamina","brand:wikidata":"Q1641044","fuel:octane_90":"yes","fuel:octane_92":"yes","name":"Pertamina 34.17101","self_service":"no","@geometry":"center"},"geometry":{"type":"Point","coordinates":[106.9865597,-6.2863706]},"id":"way/1302200264"},{"type":"Feature","properties":{"@id":"way/1308464344","amenity":"fuel","brand":"Shell","building":"roof","layer":1,"name":"Shell","operator":"Shell","@geometry":"center"},"geometry":{"type":"Point","coordinates":[107.1817223,-6.3586436]},"id":"way/1308464344"},{"type":"Feature","properties":{"@id":"way/1308464349","amenity":"fuel","brand":"Pertamina","brand:wikidata":"Q1641044","building":"roof","layer":1,"name":"Pertamina 34-17535","operator":"Pertamina","@geometry":"center"},"geometry":{"type":"Point","coordinates":[107.1823237,-6.3537776]},"id":"way/1308464349"},{"type":"Feature","properties":{"@id":"way/1317971434","addr:city":"Kota Bekasi","addr:district":"Bekasi Barat","addr:postcode":17145,"addr:province":"Jawa Barat","addr:street":"Jalan Raya Kalimalang","addr:subdistrict":"Jakasampurna","amenity":"fuel","brand":"VIVO","building":"yes","fuel:octane_90":"yes","fuel:octane_92":"yes","fuel:octane_95":"yes","layer":1,"name":"SPBU VIVO Kalimalang","opening_hours":"Mo-Su 07:00-22:00","operator":"PT VIVO ENERGI INDONESIA","payment:cash":"yes","payment:credit_cards":"yes","payment:debit_cards":"yes","payment:mastercard":"yes","payment:visa":"yes","self_service":"no","wikidata":"Q114877518","@geometry":"center"},"geometry":{"type":"Point","coordinates":[106.9522082,-6.2492787]},"id":"way/1317971434"},{"type":"Feature","properties":{"@id":"way/1317971454","addr:city":"Kabupaten Bekasi","addr:district":"Setu","addr:housenumber":29,"addr:postcode":17320,"addr:province":"Jawa Barat","addr:street":"Jalan Setu - Bantar Gebang","addr:subdistrict":"Cijengkol","amenity":"fuel","brand":"VIVO","building":"yes","fuel:octane_90":"yes","fuel:octane_92":"yes","fuel:octane_95":"yes","layer":1,"name":"SPBU VIVO Cimuning","opening_hours":"Mo-Su 07:00-22:00","operator":"PT VIVO ENERGI INDONESIA","payment:cash":"yes","payment:credit_cards":"yes","payment:debit_cards":"yes","payment:mastercard":"yes","payment:visa":"yes","self_service":"no","wikidata":"Q114877518","@geometry":"center"},"geometry":{"type":"Point","coordinates":[107.0193292,-6.3210977]},"id":"way/1317971454"},{"type":"Feature","properties":{"@id":"way/1317971460","addr:city":"Kabupaten Bekasi","addr:district":"Tambun Selatan","addr:housenumber":57,"addr:postcode":17510,"addr:province":"Jawa Barat","addr:street":"Jalan Hasanuddin","addr:subdistrict":"Tambun","amenity":"fuel","brand":"VIVO","building":"yes","fuel:octane_90":"yes","fuel:octane_92":"yes","fuel:octane_95":"yes","layer":1,"name":"SPBU VIVO Tambun","opening_hours":"Mo-Su 07:00-22:00","operator":"PT VIVO ENERGI INDONESIA","payment:cash":"yes","payment:credit_cards":"yes","payment:debit_cards":"yes","payment:mastercard":"yes","payment:visa":"yes","self_service":"no","wikidata":"Q114877518","@geometry":"center"},"geometry":{"type":"Point","coordinates":[107.0744951,-6.2655283]},"id":"way/1317971460"},{"type":"Feature","properties":{"@id":"way/1318751386","addr:city":"Kota Bekasi","addr:district":"Rawalumbu","addr:housenumber":174,"addr:postcode":17114,"addr:province":"Jawa Barat","addr:street":"Jalan Siliwangi","addr:subdistrict":"Sepanjang Jaya","amenity":"fuel","brand":"Shell","brand:wikidata":"Q110716465","building":"roof","fuel:GTL_diesel":"yes","fuel:octane_92":"yes","fuel:octane_95":"yes","layer":1,"name":"Shell Cut Meutia-1 BKS","opening_hours":"Mo-Su 06:00-22:00","operator":"Shell PLC","payment:cash":"yes","payment:credit_cards":"yes","payment:debit_cards":"yes","payment:mastercard":"yes","payment:visa":"yes","phone":"+622182738693","self_service":"no","@geometry":"center"},"geometry":{"type":"Point","coordinates":[106.992965,-6.2722629]},"id":"way/1318751386"},{"type":"Feature","properties":{"@id":"way/1342127250","addr:city":"Kabupaten Bekasi","addr:district":"Karangbahagia","addr:postcode":17530,"addr:province":"Jawa Barat","addr:street":"Jalan Raya Kp Pule","addr:subdistrict":"Karangsetia","amenity":"fuel","brand":"Pertamina","brand:wikidata":"Q1641044","name":"Pertamina 34-17553","@geometry":"center"},"geometry":{"type":"Point","coordinates":[107.1815179,-6.2215581]},"id":"way/1342127250"},{"type":"Feature","properties":{"@id":"way/1342127252","addr:city":"Kabupaten Bekasi","addr:district":"Karangbahagia","addr:postcode":17530,"addr:province":"Jawa Barat","addr:subdistrict":"Sukaraya","amenity":"fuel","brand":"Pertamina","brand:wikidata":"Q1641044","name":"Pertamina 34-17601","@geometry":"center"},"geometry":{"type":"Point","coordinates":[107.1599323,-6.2319662]},"id":"way/1342127252"},{"type":"Feature","properties":{"@id":"way/1360213674","amenity":"fuel","brand":"Pertamina","brand:wikidata":"Q1641044","fuel:diesel":"yes","fuel:octane_90":"yes","fuel:octane_92":"yes","name":"Pertamina 34.176.06","@geometry":"center"},"geometry":{"type":"Point","coordinates":[107.1301379,-6.2007965]},"id":"way/1360213674"},{"type":"Feature","properties":{"@id":"way/1366103845","amenity":"fuel","brand":"Pertamina","brand:wikidata":"Q1641044","fuel:octane_90":"yes","fuel:octane_92":"yes","name":"Pertamina 34-17546","@geometry":"center"},"geometry":{"type":"Point","coordinates":[107.1824772,-6.3266987]},"id":"way/1366103845"},{"type":"Feature","properties":{"@id":"way/1375332185","amenity":"fuel","brand":"BP","brand:wikidata":"Q152057","fuel:diesel":"yes","fuel:octane_92":"yes","fuel:octane_95":"yes","name":"BP","operator":"AKR","@geometry":"center"},"geometry":{"type":"Point","coordinates":[107.1533007,-6.3384234]},"id":"way/1375332185"},{"type":"Feature","properties":{"@id":"way/1375332203","addr:city":"Bekasi","addr:street":"Jalan Majapahit","amenity":"fuel","brand":"Pertamina","brand:wikidata":"Q1641044","fuel:octane_88":"yes","fuel:octane_92":"yes","fuel:octane_95":"yes","fuel:octane_98":"yes","name":"Pertamina","operator":"Pertamina","ref":"31.175.02","@geometry":"center"},"geometry":{"type":"Point","coordinates":[107.1551112,-6.343314]},"id":"way/1375332203"},{"type":"Feature","properties":{"@id":"way/1378352203","amenity":"fuel","brand":"Pertamina","brand:wikidata":"Q1641044","name":"Pertamina","@geometry":"center"},"geometry":{"type":"Point","coordinates":[107.0058273,-6.1628532]},"id":"way/1378352203"},{"type":"Feature","properties":{"@id":"way/1379018819","amenity":"fuel","brand":"Pertamina","brand:wikidata":"Q1641044","name":"Pertamina","@geometry":"center"},"geometry":{"type":"Point","coordinates":[107.0162954,-6.3867603]},"id":"way/1379018819"},{"type":"Feature","properties":{"@id":"way/1382942460","addr:city":"Bekasi","addr:postcode":17550,"addr:street":"Jalan M.H. Thamrin","amenity":"fuel","brand":"Pertamina","name":"Pertamina","opening_hours":"24/7","operator":"Pertamina","ref":"34-17510","@geometry":"center"},"geometry":{"type":"Point","coordinates":[107.1480985,-6.330931]},"id":"way/1382942460"},{"type":"Feature","properties":{"@id":"way/1396666335","amenity":"fuel","brand":"Pertamina","brand:wikidata":"Q1641044","building":"yes","fuel:octane_90":"yes","fuel:octane_92":"yes","fuel:octane_98":"yes","name":"Pertamina","payment:cash":"yes","payment:credit_cards":"yes","payment:debit_cards":"yes","self_service":"no","@geometry":"center"},"geometry":{"type":"Point","coordinates":[106.965276,-6.2334292]},"id":"way/1396666335"},{"type":"Feature","properties":{"@id":"way/1396666336","amenity":"fuel","brand":"Shell","brand:wikidata":"Q110716465","building":"yes","fuel:diesel":"yes","fuel:octane_92":"yes","fuel:octane_95":"yes","name":"Shell","payment:cash":"yes","payment:credit_cards":"yes","payment:debit_cards":"yes","payment:qris":"yes","self_service":"no","@geometry":"center"},"geometry":{"type":"Point","coordinates":[106.963263,-6.2207667]},"id":"way/1396666336"},{"type":"Feature","properties":{"@id":"way/1406390401","amenity":"fuel","brand":"Pertamina","brand:wikidata":"Q1641044","building":"yes","fuel:octane_90":"yes","fuel:octane_92":"yes","name":"Pertamina","self_service":"no","@geometry":"center"},"geometry":{"type":"Point","coordinates":[106.9653857,-6.2464258]},"id":"way/1406390401"},{"type":"Feature","properties":{"@id":"way/1475197282","amenity":"fuel","brand":"Pertamina","name":"Pertamina","operator":"Pertamina","@geometry":"center"},"geometry":{"type":"Point","coordinates":[106.9228499,-6.3804192]},"id":"way/1475197282"},{"type":"Feature","properties":{"@id":"way/1488742918","addr:city":"Kabupaten Bekasi","addr:district":"Cikarang Utara","addr:province":"Jawa Barat","addr:street":"Jalan Gatot Subroto","addr:subdistrict":"Karangraharja","amenity":"fuel","brand":"Pertamina","brand:wikidata":"Q1641044","fuel:diesel":"yes","fuel:octane_90":"yes","fuel:octane_92":"yes","name":"Pertamina","ref":"34-17503","@geometry":"center"},"geometry":{"type":"Point","coordinates":[107.1662128,-6.2585038]},"id":"way/1488742918"},{"type":"Feature","properties":{"@id":"way/1492209239","amenity":"fuel","brand":"Pertamina","name":"Pertamina","operator":"Pertamina","@geometry":"center"},"geometry":{"type":"Point","coordinates":[107.0501891,-6.3291512]},"id":"way/1492209239"},{"type":"Feature","properties":{"@id":"way/1492209240","amenity":"fuel","brand":"Pertamina","name":"Pertamina","operator":"Pertamina","@geometry":"center"},"geometry":{"type":"Point","coordinates":[107.0624221,-6.3149587]},"id":"way/1492209240"},{"type":"Feature","properties":{"@id":"way/1507069497","amenity":"fuel","brand":"Pertamina","name":"Pertamina","operator":"Pertamina","@geometry":"center"},"geometry":{"type":"Point","coordinates":[107.014672,-6.2501517]},"id":"way/1507069497"},{"type":"Feature","properties":{"@id":"node/1997186267","addr:city":"Bekasi","addr:postcode":17530,"addr:street":"Jalan Raya Cibarusah","amenity":"fuel","brand":"Pertamina","name":"SPBU 34-17504","operator":"Pertamina","phone":"+62 8983 2943"},"geometry":{"type":"Point","coordinates":[107.148342,-6.293699]},"id":"node/1997186267"},{"type":"Feature","properties":{"@id":"node/1997191731","amenity":"fuel","brand":"Pertamina"},"geometry":{"type":"Point","coordinates":[107.1647785,-6.2812218]},"id":"node/1997191731"},{"type":"Feature","properties":{"@id":"node/3052434975","amenity":"fuel","brand":"Pertamina","name":"Pertamina","opening_hours":"24/7","operator":"Pertamina"},"geometry":{"type":"Point","coordinates":[107.0374774,-6.2693046]},"id":"node/3052434975"},{"type":"Feature","properties":{"@id":"node/3409803927","amenity":"fuel","brand":"Pertamina","brand:wikidata":"Q1641044","brand:wikipedia":"en:Pertamina","name":"Pertamina","operator":"Pertamina","phone":"+62 21 82401075"},"geometry":{"type":"Point","coordinates":[107.0167532,-6.2679799]},"id":"node/3409803927"},{"type":"Feature","properties":{"@id":"node/3621116449","addr:city":"Bekasi","addr:postcode":17550,"addr:street":"Jalan Raya Cibarusah","amenity":"fuel","brand":"Pertamina","brand:wikidata":"Q1641044","brand:wikipedia":"en:Pertamina","name":"Pertamina","operator":"Pertamina","phone":"+62 21 897 4546"},"geometry":{"type":"Point","coordinates":[107.1272495,-6.3231988]},"id":"node/3621116449"},{"type":"Feature","properties":{"@id":"node/3732365452","amenity":"fuel","brand":"Pertamina","fuel:1_25":"yes","fuel:1_50":"yes","fuel:GTL_diesel":"yes","fuel:HGV_diesel":"yes","fuel:biodiesel":"yes","fuel:biogas":"no","fuel:cng":"no","fuel:diesel":"yes","fuel:electricity":"yes","fuel:lpg":"yes","fuel:octane_100":"yes","fuel:octane_91":"yes","fuel:octane_95":"yes","fuel:octane_98":"yes","name":"SPBU","operator":"PERTAMINA"},"geometry":{"type":"Point","coordinates":[107.0891216,-6.2772734]},"id":"node/3732365452"},{"type":"Feature","properties":{"@id":"node/5999457185","addr:postcode":17214,"addr:street":"Jalan Bulevar Harapan Indah","amenity":"fuel","brand":"Pertamina","brand:wikidata":"Q1641044","compressed_air":"no","name":"Pertamina","name:en":"Pertamina Gas Station 34-17205","opening_hours":"Mo-Su 06:00-22:00","operator":"Pertamina"},"geometry":{"type":"Point","coordinates":[106.974485,-6.1600505]},"id":"node/5999457185"},{"type":"Feature","properties":{"@id":"node/9468757859","amenity":"fuel","brand":"Pertamina","fuel:diesel":"yes","fuel:octane_90":"yes","fuel:octane_92":"yes","fuel:octane_98":"yes"},"geometry":{"type":"Point","coordinates":[107.1193008,-6.3511647]},"id":"node/9468757859"},{"type":"Feature","properties":{"@id":"node/11175159042","amenity":"fuel","brand":"Pertamina","name":"Pertamina","opening_hours":"24/7","operator":"Pertamina"},"geometry":{"type":"Point","coordinates":[107.0384914,-6.2707542]},"id":"node/11175159042"}]}